{"version": 0.6, "generator": "Overpass API 0.7.62.8 e802775f", "osm3s": {"timestamp_osm_base": "2025-11-29T00:12:56Z", "copyright": "The data included in this document is from www.openstreetmap.org. The data is made available under ODbL."}, "elements": [{"type": "node", "id": 1043413895, "lat": 43.0545318, "lon": -87.8982333, "tags": {"access": "customers", "addr:city": "Milwaukee", "addr:housenumber": "1801", "addr:postcode": "53202", "addr:state": "WI", "addr:street": "North Humboldt Avenue", "amenity": "restaurant", "capacity": "210", "contact:facebook": "https://www.facebook.com/pg/pitchsribs1942/", "contact:phone": "+1 414 272 9313", "cuisine": "barbecue", "entrance": "yes", "name": "Pitch's Lounge & Restaurant", "name:1942": "Pitch's Lounge & Restaurant", "opening_hours": "Mo-We 17:00-22:00; Th-Sa 17:00-24:00; Su 16:30-22:00", "service_times": "Su-Th 15:00-22:00; Fr-Sa 15:00-23:00", "short_name": "Pitch's", "takeaway": "yes"}}, {"type": "node", "id": 1043690174, "lat": 43.0528892, "lon": -87.9016811, "tags": {"access": "customers", "addr:city": "Milwaukee", "addr:housenumber": "815", "addr:postcode": "53202", "addr:state": "WI", "addr:street": "East Brady Street", "amenity": "restaurant", "contact:email": "info@thediplomatmke.com", "contact:phone": "+1 414 800 5816", "contact:website": "https://www.thediplomatmke.com", "cuisine": "new_american", "delivery": "no", "entrance": "yes", "name": "The Diplomat", "name:2005": "Bosley On Brady", "name:2017-08-15": "The Diplomat", "opening_hours": "Mo-Fr 11:30-14:00,16:00-22:00; Sa 16:00-22:00", "outdoor_seating": "yes", "reservation": "yes", "seats": "100", "start_date": "2005", "takeaway": "no"}}, {"type": "node", "id": 1076165565, "lat": 43.0591247, "lon": -87.8862107, "tags": {"access": "customers", "addr:city": "Milwaukee", "addr:housenumber": "1903", "addr:postcode": "53202", "addr:state": "WI", "addr:street": "East Kenilworth Place", "amenity": "restaurant", "branch": "Milwaukee Kenilworth Place", "brand": "Toppers Pizza", "brand:wikidata": "Q7825113", "contact:phone": "+1 414 226 2626", "contact:website": "https://www.toppers.com/Locations/Location-Detail?locationId=19&lat=43.0439776&lng=-87.8991514", "cuisine": "pizza", "delivery": "yes", "entrance": "yes", "name": "Toppers Pizza", "takeaway": "yes"}}, {"type": "node", "id": 1295751517, "lat": 43.0572422, "lon": -87.8867493, "tags": {"access": "customers", "addr:city": "Milwaukee", "addr:housenumber": "2101", "addr:postcode": "53202", "addr:state": "WI", "addr:street": "North Prospect Avenue", "amenity": "restaurant", "capacity": "50", "contact:email": "info@strangetownmke.com", "contact:facebook": "https://www.facebook.com/pg/strangetownmke/", "contact:phone": "+1 414 885 0404", "contact:website": "https://www.strangetownmke.com", "contact:yelp": "https://www.yelp.com/biz/strange-town-milwaukee-2", "delivery": "no", "diet:vegan": "only", "entrance": "yes", "name": "Strange Town", "name:1990-2003": "Harter\u2019s Bakery", "name:2004-06-04": "Caf\u00e9 Br\u00fccke", "name:2011-2017-01": "Allium", "opening_hours": "Mo-We 11:00-23:00; Th-Sa 11:00-24:00", "outdoor_seating": "yes", "reservation": "yes", "source": "https://riverwestcurrents.org/2004/07/cafe-brucke.html", "start_date": "2017-10-04", "takeaway": "yes", "wheelchair": "yes"}}, {"type": "node", "id": 1328513199, "lat": 43.0541614, "lon": -87.8910437, "tags": {"addr:city": "Milwaukee", "addr:housenumber": "1806", "addr:postcode": "53202", "addr:state": "WI", "addr:street": "North Farwell Avenue", "amenity": "restaurant", "contact:phone": "+1 414 224 8284", "cuisine": "thai", "delivery": "no", "name": "EE-Sane Thai Cuisine", "opening_hours": "Tu-Th 11:00-21:00; Fr-Sa 11:00-22:00; Su 15:00-21:00", "takeaway": "yes"}}, {"type": "node", "id": 1328513202, "lat": 43.0544345, "lon": -87.8907441, "tags": {"access": "customers", "addr:city": "Milwaukee", "addr:housenumber": "1824", "addr:postcode": "53202", "addr:state": "WI", "addr:street": "North Farwell Avenue", "amenity": "restaurant", "contact:email": "yigletudebebe@gmail.com", "contact:phone": "+1 414 224 5226", "contact:yelp": "https://www.yelp.com/biz/ethiopian-cottage-restaurant-milwaukee", "cuisine": "ethiopian", "entrance": "yes", "name": "Ethiopian Cottage Restaurant", "opening_hours": "Tu-Th 11:00-21:30; Fr-Sa 11:00-22:00; Su 12:30-21:00"}}, {"type": "node", "id": 1934596228, "lat": 43.0562731, "lon": -87.8982601}, {"type": "node", "id": 1934596231, "lat": 43.0562768, "lon": -87.898161}, {"type": "node", "id": 1934596272, "lat": 43.0564678, "lon": -87.8982739}, {"type": "node", "id": 1934596276, "lat": 43.0564717, "lon": -87.89817}, {"type": "node", "id": 1934596289, "lat": 43.0565543, "lon": -87.8982853}, {"type": "node", "id": 1934596291, "lat": 43.0565639, "lon": -87.8982374}, {"type": "node", "id": 1934596319, "lat": 43.0566249, "lon": -87.8981759}, {"type": "node", "id": 1934596323, "lat": 43.0566252, "lon": -87.898237}, {"type": "node", "id": 1936250192, "lat": 43.0530749, "lon": -87.9023582}, {"type": "node", "id": 1936250193, "lat": 43.0530881, "lon": -87.9026936}, {"type": "node", "id": 1936250194, "lat": 43.0533115, "lon": -87.902356}, {"type": "node", "id": 1936250195, "lat": 43.0531928, "lon": -87.9025675}, {"type": "node", "id": 1936257232, "lat": 43.0530664, "lon": -87.8992686}, {"type": "node", "id": 1936257236, "lat": 43.0530732, "lon": -87.899675, "tags": {"access": "customers", "addr:city": "Milwaukee", "addr:housenumber": "932", "addr:postcode": "53202", "addr:state": "WI", "addr:street": "East Brady Street", "amenity": "restaurant", "contact:email": "thainamiterestaurant@gmail.com", "contact:facebook": "https://www.facebook.com/Thainamite-Brady-111419255569499/", "contact:phone": "+1 414 837 6280", "contact:website": "https://www.thai-namite.com/", "contact:yelp": "https://www.yelp.com/biz/thainamite-milwaukee", "delivery": "yes", "entrance": "yes", "level": "0", "location": "Brady Street", "name": "Thainamite", "name:historic": "Thai-namite", "opening_hours": "Su-Mo,We-Th 11:00-21:30; Tu 16:00-21:30; Fr-Sa 11:00-22:00", "outdoor_seating": "yes", "takeaway": "yes"}}, {"type": "node", "id": 1936257248, "lat": 43.0532806, "lon": -87.8989969}, {"type": "node", "id": 1936257249, "lat": 43.0532817, "lon": -87.899115}, {"type": "node", "id": 1936257252, "lat": 43.053338, "lon": -87.8989959}, {"type": "node", "id": 1936257253, "lat": 43.0533399, "lon": -87.8992638}, {"type": "node", "id": 2302600308, "lat": 43.0547934, "lon": -87.8911211}, {"type": "node", "id": 2302600322, "lat": 43.0546608, "lon": -87.891248}, {"type": "node", "id": 2302600330, "lat": 43.0545315, "lon": -87.890995}, {"type": "node", "id": 2611216471, "lat": 43.0563304, "lon": -87.8889352, "tags": {"addr:city": "Milwaukee", "addr:housenumber": "1958", "addr:postcode": "53202", "addr:state": "WI", "addr:street": "North Farwell Avenue", "amenity": "restaurant", "capacity": "50", "contact:email": "sbgmke@gmail.com", "contact:fax": "+1 414 220 9112", "contact:phone": "+1 414 220 9111", "contact:website": "http://stonebowlgrill.com", "cuisine": "korean", "name": "Stone Bowl Grill", "name:2007": "Mayura", "name:2014": "Stone Bowl Grill", "opening_hours": "Mo-Sa 11:00-22:00; Su 11:00-21:00", "start_date": "2014", "takeaway": "yes", "wheelchair": "yes"}}, {"type": "node", "id": 2611216473, "lat": 43.0562447, "lon": -87.8890497, "tags": {"addr:city": "Milwaukee", "addr:housenumber": "1952", "addr:postcode": "53202", "addr:state": "WI", "addr:street": "North Farwell Avenue", "amenity": "restaurant", "capacity": "25", "contact:fax": "+1 414 220 9911", "contact:phone": "+1 414 220 9944", "contact:website": "http://ricenrollbistro.com", "cuisine": "japanese;sushi;thai", "delivery": "yes", "name": "Rice 'n' Roll Bistro", "name:2005": "Sobelman's Tall Grass Grill", "name:2007-2009": "Patty Burger", "name:2010": "House of Corned Beef", "name:2015": "Rice 'n' Roll Bistro", "opening_hours": "Mo 16:30-22:00; Tu-Th 11:30-15:00, 16:30-22:00; Fr-Sa 11:30-15:00, 16:30-22:30; Su 12:30-21:30", "outdoor_seating": "yes", "start_date": "2015", "takeaway": "yes", "wheelchair": "yes"}}, {"type": "node", "id": 2623053728, "lat": 43.0485079, "lon": -87.9057897, "tags": {"access": "customers", "addr:suite": "100", "amenity": "restaurant", "branch": "Milwaukee - East Pointe", "brand": "Noodles & Company", "brand:wikidata": "Q7049673", "check_date:opening_hours": "2025-09-11", "contact:phone": "+1 414 273 9705", "contact:website": "https://locations.noodles.com/wi/milwaukee/544-e-ogden.html", "cuisine": "pasta", "delivery": "no", "entrance": "yes", "internet_access": "wlan", "name": "Noodles & Company", "opening_hours": "10:30-22:00; PH off", "outdoor_seating": "yes", "reservation": "no", "takeaway": "yes"}}, {"type": "node", "id": 3796240954, "lat": 43.0539171, "lon": -87.8916291, "tags": {"addr:city": "Milwaukee", "addr:housenumber": "1751", "addr:postcode": "53202", "addr:state": "WI", "addr:street": "North Farwell Avenue", "amenity": "restaurant", "capacity": "20", "contact:instagram": "https://www.instagram.com/purslanemke", "cuisine": "mediterranean", "name": "Purslane", "old_name:2011": "Sphinx Coffee", "old_name:2013-2024": "Ardent", "opening_date": "2025-06", "opening_hours": "Tu-Th 17:00-21:00; Fr-Sa 17:00-22:00", "phone": "+1-414-212-8692", "reservation": "recommended", "website": "https://www.purslane.kitchen/", "wheelchair": "no"}}, {"type": "node", "id": 3796263919, "lat": 43.0530911, "lon": -87.9029142}, {"type": "node", "id": 3796263920, "lat": 43.0533679, "lon": -87.9029127}, {"type": "node", "id": 3796263921, "lat": 43.0533672, "lon": -87.9028207}, {"type": "node", "id": 3796263924, "lat": 43.053298, "lon": -87.9028211}, {"type": "node", "id": 3796263925, "lat": 43.0532978, "lon": -87.9028372}, {"type": "node", "id": 3796263926, "lat": 43.0532397, "lon": -87.902828}, {"type": "node", "id": 3796263927, "lat": 43.0532396, "lon": -87.902799}, {"type": "node", "id": 3796263928, "lat": 43.0530908, "lon": -87.9027997}, {"type": "node", "id": 4088976022, "lat": 43.0499466, "lon": -87.8953669, "tags": {"addr:city": "Milwaukee", "addr:housenumber": "1505", "addr:postcode": "53202", "addr:state": "WI", "addr:street": "North Farwell Avenue", "amenity": "restaurant", "cuisine": "thai;lao", "entrance": "yes", "name": "Lemongrass by EE-Sane", "old_name": "Elephant Caf\u00e9", "old_name:2021-2023": "Twisted Cafe"}}, {"type": "node", "id": 4088976035, "lat": 43.0498695, "lon": -87.8954928, "tags": {"addr:city": "Milwaukee", "addr:housenumber": "1503", "addr:postcode": "53202", "addr:state": "WI", "addr:street": "North Farwell Avenue", "amenity": "restaurant", "contact:email": "thepastatree@gmail.com", "contact:phone": "+1 414 276 8867", "contact:website": "https://pastatreemilwaukee.com/", "contact:yelp": "https://www.yelp.com/biz/the-pasta-tree-restaurant-and-wine-bar-milwaukee-2", "cuisine": "italian", "delivery": "yes", "name": "The Pasta Tree Restaurant & Wine Bar", "opening_hours": "Tu-Th 16:30-22:00; Fr-Su 17:00-22:00", "outdoor_seating": "yes", "reservation": "yes", "start_date": "1982", "takeaway": "yes"}}, {"type": "node", "id": 4152551728, "lat": 43.0504071, "lon": -87.9048232}, {"type": "node", "id": 4152551729, "lat": 43.0504074, "lon": -87.904956}, {"type": "node", "id": 4152551730, "lat": 43.0504165, "lon": -87.9049559}, {"type": "node", "id": 4152551731, "lat": 43.0504169, "lon": -87.905123}, {"type": "node", "id": 4152551732, "lat": 43.0504196, "lon": -87.905123}, {"type": "node", "id": 4152551733, "lat": 43.0504197, "lon": -87.9051502}, {"type": "node", "id": 4152551736, "lat": 43.0504857, "lon": -87.9051226}, {"type": "node", "id": 4152551737, "lat": 43.0504461, "lon": -87.90515}, {"type": "node", "id": 4152551744, "lat": 43.0504876, "lon": -87.9048228}, {"type": "node", "id": 4152551745, "lat": 43.0504883, "lon": -87.9051226}, {"type": "node", "id": 4154033297, "lat": 43.0504459, "lon": -87.904823, "tags": {"access": "customers", "entrance": "yes"}}, {"type": "node", "id": 4154033298, "lat": 43.0504461, "lon": -87.905156}, {"type": "node", "id": 4154033300, "lat": 43.0504857, "lon": -87.9051345, "tags": {"access": "private", "entrance": "garage"}}, {"type": "node", "id": 4154033301, "lat": 43.0504858, "lon": -87.9051559}, {"type": "node", "id": 4154033302, "lat": 43.0504879, "lon": -87.904963, "tags": {"access": "private", "addr:city": "Milwaukee", "addr:housenumber": "533", "addr:postcode": "53202", "addr:state": "WI", "addr:street": "East Pleasant Street", "entrance": "service"}}, {"type": "node", "id": 4160311359, "lat": 43.0508994, "lon": -87.9068003, "tags": {"access": "customers", "addr:city": "Milwaukee", "addr:housenumber": "459", "addr:postcode": "53202", "addr:state": "WI", "addr:street": "East Pleasant Street", "amenity": "restaurant", "contact:email": "hello@birchonpleasant.com", "contact:phone": "+1 414 323 7372", "contact:website": "https://www.birchonpleasant.com/", "cuisine": "new_american", "entrance": "yes", "name": "Birch", "old_name": "Birch + Butcher", "opening_hours": "Mo-Th 16:00-21:00; Fr 16:00-22:00; Sa 17:00-22:00", "outdoor_seating": "yes", "reservation": "yes", "shop": "butcher", "source": "https://www.jsonline.com/story/money/business/2017/11/12/birch-butcher-retail-shop-open-e-pleasant-st-full-restaurant-starting-next-week/856526001/", "start_date": "2017-11-17"}}, {"type": "node", "id": 4196088264, "lat": 43.0530633, "lon": -87.8958498, "tags": {"access": "customers", "addr:housenumber": "1230", "addr:street": "East Brady Street", "amenity": "restaurant", "contact:email": "contact@easytygermke.com", "contact:facebook": "https://www.facebook.com/easytygermke/", "contact:phone": "+1 414 226 6640", "contact:website": "https://www.easytygermke.net/", "contact:yelp": "https://www.yelp.com/biz/easy-tyger-milwaukee", "cuisine": "world", "delivery": "yes", "entrance": "yes", "level": "0", "name": "Easy Tyger", "opening_hours": "Tu-Th 17:00-21:30; Fr-Sa 17:00-22:30", "takeaway": "yes"}}, {"type": "node", "id": 4261314543, "lat": 43.0503817, "lon": -87.8941682}, {"type": "node", "id": 4261314554, "lat": 43.0504605, "lon": -87.8943257}, {"type": "node", "id": 4261314564, "lat": 43.0505139, "lon": -87.8940449}, {"type": "node", "id": 4261314573, "lat": 43.0505375, "lon": -87.8944816}, {"type": "node", "id": 4261314577, "lat": 43.050558, "lon": -87.8944631, "tags": {"access": "private", "entrance": "service"}}, {"type": "node", "id": 4261314606, "lat": 43.0506415, "lon": -87.8943852}, {"type": "node", "id": 4261314612, "lat": 43.0506516, "lon": -87.8943758, "tags": {"access": "customers", "covered": "yes", "entrance": "yes"}}, {"type": "node", "id": 4261314617, "lat": 43.050662, "lon": -87.8943661}, {"type": "node", "id": 4261314621, "lat": 43.0506698, "lon": -87.8943588}, {"type": "node", "id": 4265479426, "lat": 43.0505475, "lon": -87.8941127}, {"type": "node", "id": 4265479428, "lat": 43.0506588, "lon": -87.8943368}, {"type": "node", "id": 4272600411, "lat": 43.05166, "lon": -87.8937285, "tags": {"access": "customers", "amenity": "restaurant", "contact:email": "Amoudwarsame@yahoo.com", "contact:facebook": "https://www.facebook.com/bluestarcafemke/", "contact:phone": "+1 414 273 9744", "contact:yelp": "https://www.yelp.com/biz/blue-star-cafe-milwaukee", "cuisine": "somali", "delivery": "yes", "entrance": "yes", "name": "Blue Star Cafe", "opening_hours": "Tu-Su 11:00-21:00", "reservation": "no", "start_date": "2015", "takeaway": "yes"}}, {"type": "node", "id": 4318739127, "lat": 43.0527429, "lon": -87.8953149, "tags": {"access": "delivery", "addr:city": "Milwaukee", "addr:housenumber": "1668", "addr:postcode": "53202", "addr:state": "WI", "addr:street": "North Arlington Place", "entrance": "yes", "name": "Deliveries"}}, {"type": "node", "id": 4318739128, "lat": 43.0528676, "lon": -87.8952278, "tags": {"access": "customers", "addr:city": "Milwaukee", "addr:housenumber": "1303", "addr:postcode": "53202", "addr:state": "WI", "addr:street": "East Brady Street", "entrance": "yes"}}, {"type": "node", "id": 4318739129, "lat": 43.0528674, "lon": -87.8951756, "tags": {"access": "customers", "addr:city": "Milwaukee", "addr:housenumber": "1305", "addr:postcode": "53202", "addr:state": "WI", "addr:street": "East Brady Street", "entrance": "yes"}}, {"type": "node", "id": 4318739130, "lat": 43.0528672, "lon": -87.8950937, "tags": {"access": "customers", "addr:city": "Milwaukee", "addr:housenumber": "1307", "addr:postcode": "53202", "addr:state": "WI", "addr:street": "East Brady Street", "entrance": "yes", "name:1988-2017": "Mimma's Caf\u00e9"}}, {"type": "node", "id": 4318739142, "lat": 43.0526735, "lon": -87.8953153, "tags": {"access": "private", "addr:city": "Milwaukee", "addr:housenumber": "1664", "addr:postcode": "53202", "addr:state": "WI", "addr:street": "North Arlington Place", "entrance": "yes"}}, {"type": "node", "id": 4318741010, "lat": 43.0526669, "lon": -87.8949264}, {"type": "node", "id": 4318741011, "lat": 43.0526669, "lon": -87.8949305}, {"type": "node", "id": 4318741012, "lat": 43.0526682, "lon": -87.8953154}, {"type": "node", "id": 4318741013, "lat": 43.0526736, "lon": -87.8949056}, {"type": "node", "id": 4318741014, "lat": 43.0526737, "lon": -87.8949264}, {"type": "node", "id": 4318741019, "lat": 43.0527014, "lon": -87.8949054}, {"type": "node", "id": 4318741020, "lat": 43.0527015, "lon": -87.8949262}, {"type": "node", "id": 4318741037, "lat": 43.05273, "lon": -87.894926}, {"type": "node", "id": 4318741041, "lat": 43.0527304, "lon": -87.8950563}, {"type": "node", "id": 4318741042, "lat": 43.0527418, "lon": -87.8950562}, {"type": "node", "id": 4318741043, "lat": 43.0527419, "lon": -87.8950673}, {"type": "node", "id": 4318741053, "lat": 43.0527847, "lon": -87.895067}, {"type": "node", "id": 4318741069, "lat": 43.0528519, "lon": -87.8953142, "tags": {"access": "private", "addr:city": "Milwaukee", "addr:housenumber": "1301", "addr:postcode": "53202", "addr:state": "WI", "addr:street": "East Brady Street", "entrance": "yes"}}, {"type": "node", "id": 4318741190, "lat": 43.0528624, "lon": -87.8950665}, {"type": "node", "id": 4318741192, "lat": 43.0528625, "lon": -87.8950724, "tags": {"access": "customers", "entrance": "yes"}}, {"type": "node", "id": 4318741193, "lat": 43.0528625, "lon": -87.8950874}, {"type": "node", "id": 4318741205, "lat": 43.0528671, "lon": -87.8950873}, {"type": "node", "id": 4318741206, "lat": 43.0528675, "lon": -87.8951814}, {"type": "node", "id": 4318741207, "lat": 43.0528676, "lon": -87.8952195}, {"type": "node", "id": 4318741208, "lat": 43.0528679, "lon": -87.8953141}, {"type": "node", "id": 4322736304, "lat": 43.0528453, "lon": -87.8966058, "tags": {"addr:city": "Milwaukee", "addr:housenumber": "1205", "addr:postcode": "53202", "addr:state": "WI", "addr:street": "East Brady Street", "amenity": "restaurant", "contact:phone": "+1-414-210-3010", "cuisine": "mexican", "delivery": "no", "name": "Kompali Taqueria", "old_name:1999-2017": "Cempazuchi Comida Brava", "opening_hours": "Su 11:00-20:00; Tu-Th 11:00-21:00; Fr-Sa 11:00-23:00", "outdoor_seating": "no", "start_date": "2018-01-29", "takeaway": "yes"}}, {"type": "node", "id": 4363400735, "lat": 43.0531935, "lon": -87.9026926}, {"type": "node", "id": 4363400736, "lat": 43.0533125, "lon": -87.9025664}, {"type": "node", "id": 4366643755, "lat": 43.0521047, "lon": -87.902886}, {"type": "node", "id": 4366643756, "lat": 43.0521057, "lon": -87.9032237}, {"type": "node", "id": 4366643907, "lat": 43.052189, "lon": -87.9031076}, {"type": "node", "id": 4366643908, "lat": 43.0521894, "lon": -87.9032233}, {"type": "node", "id": 4366643925, "lat": 43.0522131, "lon": -87.9028854}, {"type": "node", "id": 4366643926, "lat": 43.0522138, "lon": -87.9031074}, {"type": "node", "id": 4424569997, "lat": 43.0521055, "lon": -87.9031631}, {"type": "node", "id": 4424569998, "lat": 43.052107, "lon": -87.9032237}, {"type": "node", "id": 4424570000, "lat": 43.0521191, "lon": -87.9032237, "tags": {"access": "customers", "entrance": "yes"}}, {"type": "node", "id": 4424570005, "lat": 43.0521875, "lon": -87.9032233}, {"type": "node", "id": 4424570008, "lat": 43.0522016, "lon": -87.9031075, "tags": {"access": "delivery", "entrance": "garage"}}, {"type": "node", "id": 4424570009, "lat": 43.0522132, "lon": -87.9029151}, {"type": "node", "id": 4485597933, "lat": 43.0533214, "lon": -87.8886189, "tags": {"addr:city": "Milwaukee", "addr:housenumber": "1810", "addr:postcode": "53202", "addr:state": "WI", "addr:street": "North Prospect Avenue", "amenity": "restaurant", "name": "Taylor's"}}, {"type": "node", "id": 4487729235, "lat": 43.053266, "lon": -87.8917031}, {"type": "node", "id": 4487729241, "lat": 43.053288, "lon": -87.8916827}, {"type": "node", "id": 4487729243, "lat": 43.053295, "lon": -87.8916969}, {"type": "node", "id": 4487729245, "lat": 43.053311, "lon": -87.8916822}, {"type": "node", "id": 4487729246, "lat": 43.053314, "lon": -87.8918002}, {"type": "node", "id": 4487729249, "lat": 43.053324, "lon": -87.8918204}, {"type": "node", "id": 4487729250, "lat": 43.0533306, "lon": -87.8918338}, {"type": "node", "id": 4487729256, "lat": 43.0533377, "lon": -87.8918273, "tags": {"access": "private", "entrance": "yes"}}, {"type": "node", "id": 4487729259, "lat": 43.0533526, "lon": -87.8916434}, {"type": "node", "id": 4487729265, "lat": 43.0533741, "lon": -87.8916868}, {"type": "node", "id": 4487729272, "lat": 43.0534018, "lon": -87.8917678}, {"type": "node", "id": 4487729274, "lat": 43.0534041, "lon": -87.8917658}, {"type": "node", "id": 4487729275, "lat": 43.0534054, "lon": -87.8917645, "tags": {"access": "customers", "entrance": "yes"}}, {"type": "node", "id": 4487729278, "lat": 43.0534103, "lon": -87.89176}, {"type": "node", "id": 4489906178, "lat": 43.0531482, "lon": -87.8947621}, {"type": "node", "id": 4489906179, "lat": 43.0532195, "lon": -87.8948544, "tags": {"access": "private", "addr:city": "Milwaukee", "addr:housenumber": "1706", "addr:postcode": "53202", "addr:state": "WI", "addr:street": "North Arlington Place", "entrance": "yes"}}, {"type": "node", "id": 4489906181, "lat": 43.0530394, "lon": -87.894845, "tags": {"access": "customers", "entrance": "yes"}}, {"type": "node", "id": 4489906182, "lat": 43.053039, "lon": -87.8946973, "tags": {"access": "customers", "entrance": "yes", "name": "Takeaway"}}, {"type": "node", "id": 4489906185, "lat": 43.0532285, "lon": -87.8948544}, {"type": "node", "id": 4489906186, "lat": 43.0532282, "lon": -87.8947617}, {"type": "node", "id": 4489906187, "lat": 43.053148, "lon": -87.8946788}, {"type": "node", "id": 4489906188, "lat": 43.053039, "lon": -87.8946794}, {"type": "node", "id": 4489906493, "lat": 43.0530394, "lon": -87.8948553}, {"type": "node", "id": 4489906510, "lat": 43.0530564, "lon": -87.8943175, "tags": {"access": "customers", "addr:city": "Milwaukee", "addr:housenumber": "1330", "addr:postcode": "53202", "addr:state": "WI", "addr:street": "East Brady Street", "amenity": "restaurant", "branch": "Brady Street", "contact:email": "emailID1047@nomail.com", "contact:facebook": "https://www.facebook.com/TheKingCrabShackatBrady/", "contact:phone": "+1 414 210 4287", "contact:website": "https://thekingcrabshackatbrady.com", "contact:yelp": "https://www.yelp.com/biz/the-king-crab-shack-milwaukee", "cuisine": "seafood", "delivery": "no", "entrance": "yes", "name": "The King Crab Shack", "name:2009": "Miss Groove Limited", "name:2012-2015": "Philly Way", "name:2016": "Pepi\u2019s Place", "opening_hours": "Mo-Fr 15:00-22:00; Sa-Su 12:00-22:00", "outdoor_seating": "no", "source": "https://onmilwaukee.com/dining/articles/the-king-crab-shack-on-brady-street.html", "start_date": "2017-12", "takeaway": "yes"}}, {"type": "node", "id": 4516543700, "lat": 43.0531307, "lon": -87.8992675}, {"type": "node", "id": 4516557106, "lat": 43.0532814, "lon": -87.8990864, "tags": {"access": "private", "entrance": "service"}}, {"type": "node", "id": 4516557108, "lat": 43.0530653, "lon": -87.8991543, "tags": {"access": "customers", "entrance": "yes"}}, {"type": "node", "id": 4518436671, "lat": 43.0530878, "lon": -87.9026331}, {"type": "node", "id": 4518436672, "lat": 43.0531931, "lon": -87.9026325}, {"type": "node", "id": 4518436674, "lat": 43.0531929, "lon": -87.9025789}, {"type": "node", "id": 4518436675, "lat": 43.0530876, "lon": -87.9025779}, {"type": "node", "id": 4518436677, "lat": 43.0530755, "lon": -87.9024724, "tags": {"access": "customers", "entrance": "yes"}}, {"type": "node", "id": 4518436679, "lat": 43.0532762, "lon": -87.9023563, "tags": {"access": "private", "entrance": "service"}}, {"type": "node", "id": 4518436681, "lat": 43.0533092, "lon": -87.902356, "tags": {"man_made": "surveillance", "support": "wall_mounted", "surveillance": "outdoor", "surveillance:type": "camera"}}, {"type": "node", "id": 4518436687, "lat": 43.0530986, "lon": -87.9027997}, {"type": "node", "id": 4518437090, "lat": 43.0530908, "lon": -87.9028137, "tags": {"access": "customers", "entrance": "yes"}}, {"type": "node", "id": 4518437091, "lat": 43.0532762, "lon": -87.9028314}, {"type": "node", "id": 4518437092, "lat": 43.0532634, "lon": -87.9028284}, {"type": "node", "id": 4518437099, "lat": 43.0530759, "lon": -87.9025686}, {"type": "node", "id": 4518437100, "lat": 43.0530875, "lon": -87.9025685}, {"type": "node", "id": 4540368949, "lat": 43.0546212, "lon": -87.8909222}, {"type": "node", "id": 4540368950, "lat": 43.0546149, "lon": -87.8909152}, {"type": "node", "id": 4542633189, "lat": 43.0542383, "lon": -87.8909206, "tags": {"access": "customers", "addr:city": "Milwaukee", "addr:housenumber": "1814", "addr:postcode": "53202", "addr:state": "WI", "addr:street": "North Farwell Avenue", "amenity": "restaurant", "branch": "Milwaukee East Side", "contact:facebook": "https://www.facebook.com/Arlanderz", "contact:phone": "+1 414 837 5151", "contact:website": "https://www.arlanderz.com/", "cuisine": "soul_food", "entrance": "yes", "name": "Arlanderz Chicken & Fish", "name:2010-2020": "Pho 43", "opening_hours": "Th-Tu 12:00-22:00", "start_date": "2020", "takeaway": "yes"}}, {"type": "node", "id": 4542633193, "lat": 43.0543837, "lon": -87.8907584, "tags": {"access": "customers", "addr:city": "Milwaukee", "addr:housenumber": "1820", "addr:postcode": "53202", "addr:state": "WI", "addr:street": "North Farwell Avenue", "amenity": "restaurant", "contact:fax": "+1 414 390 0591", "contact:phone": "+1 414 390 0570;+1 414 390 0580", "contact:website": "https://chopstixmilwaukee.com/", "contact:yelp": "https://www.yelp.com/biz/chopstix-milwaukee", "cuisine": "chinese", "delivery": "yes", "entrance": "yes", "name": "Chopstix", "opening_hours": "Mo-Sa 11:00-03:00; Su 11:00-24:00", "source": "https://onmilwaukee.com/articles/arlanderz-fish-and-chicken-opens", "takeaway": "yes"}}, {"type": "node", "id": 4543552901, "lat": 43.05462, "lon": -87.8909225}, {"type": "node", "id": 4543552902, "lat": 43.0546224, "lon": -87.8909228}, {"type": "node", "id": 4543552903, "lat": 43.0546191, "lon": -87.8909234}, {"type": "node", "id": 4543552904, "lat": 43.0546231, "lon": -87.8909238}, {"type": "node", "id": 4543552905, "lat": 43.0546714, "lon": -87.8908815}, {"type": "node", "id": 4543552906, "lat": 43.0546677, "lon": -87.8908789}, {"type": "node", "id": 4543552909, "lat": 43.0546674, "lon": -87.8908798}, {"type": "node", "id": 4543552910, "lat": 43.0546684, "lon": -87.8908784}, {"type": "node", "id": 4543552913, "lat": 43.0546674, "lon": -87.8908814}, {"type": "node", "id": 4543552916, "lat": 43.0546178, "lon": -87.8909209, "tags": {"access": "customers", "entrance": "yes"}}, {"type": "node", "id": 4543552918, "lat": 43.0546618, "lon": -87.8908867}, {"type": "node", "id": 4543552920, "lat": 43.0546263, "lon": -87.8909207}, {"type": "node", "id": 4543552922, "lat": 43.0547247, "lon": -87.8911868}, {"type": "node", "id": 4543552923, "lat": 43.0545973, "lon": -87.890932}, {"type": "node", "id": 4543784179, "lat": 43.054786, "lon": -87.8911282, "tags": {"man_made": "surveillance", "support": "wall_mounted", "surveillance": "outdoor", "surveillance:type": "camera"}}, {"type": "node", "id": 4543784180, "lat": 43.0547898, "lon": -87.8911245, "tags": {"man_made": "surveillance", "support": "wall_mounted", "surveillance": "outdoor", "surveillance:type": "camera"}}, {"type": "node", "id": 4543784182, "lat": 43.0546997, "lon": -87.8912108, "tags": {"entrance": "service", "level": "1"}}, {"type": "node", "id": 4543784183, "lat": 43.0547096, "lon": -87.8912014, "tags": {"entrance": "service", "level": "1"}}, {"type": "node", "id": 4543784184, "lat": 43.0547441, "lon": -87.8911683, "tags": {"entrance": "service", "level": "1"}}, {"type": "node", "id": 4679285390, "lat": 43.0583341, "lon": -87.885157}, {"type": "node", "id": 4679285391, "lat": 43.0583843, "lon": -87.885058}, {"type": "node", "id": 4693128413, "lat": 43.0560364, "lon": -87.8978916, "tags": {"addr:city": "Milwaukee", "addr:housenumber": "1888", "addr:postcode": "53202", "addr:state": "WI", "addr:street": "North Humboldt Avenue", "addr:unit": "101", "amenity": "restaurant", "branch": "Humboldt", "contact:phone": "+1-414-210-3693", "contact:website": "https://curryhutwi.com/", "cuisine": "indian", "name": "Curry Hut", "old_name:2006": "Maglio Pizza", "old_name:2014": "Greek Village Gyros", "old_name:2015": "Baba Ghanouj", "old_name:2017": "vacant", "old_name:2022": "Wisconsin Pizza Authority", "reservation": "yes", "takeaway": "yes"}}, {"type": "node", "id": 4770490659, "lat": 43.056276, "lon": -87.8981835, "tags": {"access": "customers", "entrance": "yes"}}, {"type": "node", "id": 4770490661, "lat": 43.0564736, "lon": -87.8982095, "tags": {"access": "customers", "entrance": "yes"}}, {"type": "node", "id": 4770490666, "lat": 43.0565994, "lon": -87.8981733, "tags": {"entrance": "yes"}}, {"type": "node", "id": 4770490667, "lat": 43.0565654, "lon": -87.8981762, "tags": {"entrance": "yes"}}, {"type": "node", "id": 4770490668, "lat": 43.0565253, "lon": -87.8981737, "tags": {"entrance": "yes"}}, {"type": "node", "id": 4770490670, "lat": 43.0564675, "lon": -87.8982808}, {"type": "node", "id": 4770490671, "lat": 43.0565543, "lon": -87.8982825}, {"type": "node", "id": 4770490672, "lat": 43.0565619, "lon": -87.8982826}, {"type": "node", "id": 4770490675, "lat": 43.0564702, "lon": -87.8982096}, {"type": "node", "id": 4770490676, "lat": 43.0565001, "lon": -87.8982091}, {"type": "node", "id": 4770490677, "lat": 43.0565042, "lon": -87.8981765}, {"type": "node", "id": 4770490678, "lat": 43.0565042, "lon": -87.8981739}, {"type": "node", "id": 4770490679, "lat": 43.0565469, "lon": -87.8981735}, {"type": "node", "id": 4770490680, "lat": 43.0565469, "lon": -87.8981764}, {"type": "node", "id": 4770490681, "lat": 43.0566147, "lon": -87.8981732}, {"type": "node", "id": 4770490682, "lat": 43.0565835, "lon": -87.8981734}, {"type": "node", "id": 4770490683, "lat": 43.0565835, "lon": -87.8981761}, {"type": "node", "id": 4770490684, "lat": 43.0566148, "lon": -87.898176}, {"type": "node", "id": 4770490685, "lat": 43.0565, "lon": -87.8981766}, {"type": "node", "id": 5649690226, "lat": 43.0582541, "lon": -87.8852334}, {"type": "node", "id": 6051178259, "lat": 43.0580621, "lon": -87.8854469, "tags": {"access": "customers", "addr:city": "Milwaukee", "addr:housenumber": "2150", "addr:postcode": "53202", "addr:state": "WI", "addr:street": "North Prospect Avenue", "amenity": "restaurant", "cuisine": "korean", "entrance": "yes", "name:2003": "Izumi's", "name:2019-2020": "Maru Sushi"}}, {"type": "node", "id": 6067421201, "lat": 43.0504839, "lon": -87.9051559}, {"type": "node", "id": 6067421204, "lat": 43.0504656, "lon": -87.905156}, {"type": "node", "id": 6067421209, "lat": 43.0504636, "lon": -87.9048229}, {"type": "node", "id": 6204331288, "lat": 43.060011, "lon": -87.8847695}, {"type": "node", "id": 6204331289, "lat": 43.0600166, "lon": -87.8850096}, {"type": "node", "id": 6204331290, "lat": 43.059993, "lon": -87.8850193}, {"type": "node", "id": 6204331291, "lat": 43.0599069, "lon": -87.8848437}, {"type": "node", "id": 6204332771, "lat": 43.0595833, "lon": -87.8858044}, {"type": "node", "id": 6204332772, "lat": 43.059575, "lon": -87.8858124}, {"type": "node", "id": 6204332773, "lat": 43.0595866, "lon": -87.8858348}, {"type": "node", "id": 6204332774, "lat": 43.0594253, "lon": -87.8859905}, {"type": "node", "id": 6204332775, "lat": 43.0593322, "lon": -87.8858098}, {"type": "node", "id": 6204332827, "lat": 43.0597398, "lon": -87.8903936}, {"type": "node", "id": 6204332828, "lat": 43.0597365, "lon": -87.8899575}, {"type": "node", "id": 6204332880, "lat": 43.0598634, "lon": -87.8913836}, {"type": "node", "id": 6204332881, "lat": 43.0598651, "lon": -87.891573}, {"type": "node", "id": 6204332882, "lat": 43.0597262, "lon": -87.8915754}, {"type": "node", "id": 6204332883, "lat": 43.0597244, "lon": -87.891386}, {"type": "node", "id": 6204366890, "lat": 43.0598616, "lon": -87.8876179, "tags": {"addr:city": "Milwaukee", "addr:housenumber": "1813", "addr:postcode": "53202", "addr:state": "WI", "addr:street": "East Kenilworth Place", "amenity": "restaurant", "branch": "Milwaukee Eastside", "contact:phone": "+1 414 763 4525", "contact:website": "https://fusionpokemke.com", "contact:yelp": "https://www.yelp.com/biz/fusion-poke-milwaukee-2", "cuisine": "hawaiian", "delivery": "yes", "internet_access": "wlan", "internet_access:fee": "no", "name": "Fusion Poke", "old_name:2006": "Hotch-A-Do", "old_name:2012": "The Hotch Spot", "old_name:2015-2017": "Hotch", "opening_hours": "11:00-23:00", "reservation": "yes", "source": "https://milwaukeerecord.com/food-drink/longtime-east-side-restaurant-hotch-is-closing/", "start_date": "2018-06", "takeaway": "yes"}}, {"type": "node", "id": 6204366901, "lat": 43.0600118, "lon": -87.8848381}, {"type": "node", "id": 6204366902, "lat": 43.0600216, "lon": -87.8848556}, {"type": "node", "id": 6204366903, "lat": 43.0600197, "lon": -87.884938}, {"type": "node", "id": 6204366904, "lat": 43.060013, "lon": -87.8849453}, {"type": "node", "id": 6205760207, "lat": 43.0595019, "lon": -87.8856461}, {"type": "node", "id": 6351156916, "lat": 43.0598773, "lon": -87.8914944, "tags": {"access": "customers", "entrance": "yes"}}, {"type": "node", "id": 6351156920, "lat": 43.0598637, "lon": -87.8914196}, {"type": "node", "id": 6351156921, "lat": 43.0598777, "lon": -87.8915413}, {"type": "node", "id": 6351156923, "lat": 43.0598648, "lon": -87.8915416}, {"type": "node", "id": 6351293045, "lat": 43.0597776, "lon": -87.890321}, {"type": "node", "id": 6351293046, "lat": 43.0597781, "lon": -87.8903906}, {"type": "node", "id": 6351293047, "lat": 43.0598306, "lon": -87.8901408, "tags": {"access": "private", "entrance": "service"}}, {"type": "node", "id": 6351293048, "lat": 43.0597772, "lon": -87.8902669, "tags": {"access": "customers", "entrance": "yes"}}, {"type": "node", "id": 6351293050, "lat": 43.0598481, "lon": -87.8901406}, {"type": "node", "id": 6351293051, "lat": 43.0598466, "lon": -87.8899559}, {"type": "node", "id": 6351293060, "lat": 43.0597781, "lon": -87.890393}, {"type": "node", "id": 6351293061, "lat": 43.0597762, "lon": -87.8901416}, {"type": "node", "id": 6357400849, "lat": 43.0532475, "lon": -87.8991156, "tags": {"access": "private", "entrance": "service"}}, {"type": "node", "id": 6357400851, "lat": 43.053065, "lon": -87.8991188}, {"type": "node", "id": 6357400853, "lat": 43.0530769, "lon": -87.8991186}, {"type": "node", "id": 6417099170, "lat": 43.0583553, "lon": -87.8850231}, {"type": "node", "id": 6417099173, "lat": 43.0583628, "lon": -87.8850159}, {"type": "node", "id": 6417099174, "lat": 43.0582994, "lon": -87.8850765}, {"type": "node", "id": 6417099175, "lat": 43.0582969, "lon": -87.8850717}, {"type": "node", "id": 6417099176, "lat": 43.0582125, "lon": -87.8851523}, {"type": "node", "id": 6417099184, "lat": 43.0583443, "lon": -87.8851379, "tags": {"access": "customers", "entrance": "yes"}}, {"type": "node", "id": 6417100085, "lat": 43.0583414, "lon": -87.8851438}, {"type": "node", "id": 6417100086, "lat": 43.0583381, "lon": -87.8851503, "tags": {"access": "private", "entrance": "service"}}, {"type": "node", "id": 6417100090, "lat": 43.0583741, "lon": -87.8850382}, {"type": "node", "id": 6417100091, "lat": 43.0583594, "lon": -87.8851079}, {"type": "node", "id": 6419813244, "lat": 43.0597899, "lon": -87.887493, "tags": {"addr:city": "Milwaukee", "addr:housenumber": "1815", "addr:postcode": "53202", "addr:state": "WI", "addr:street": "East Kenilworth Place", "amenity": "restaurant", "name": "Frankies Restaurant and Catering", "old_name:1980": "Rocky Rococo's", "old_name:2004-2012": "Cans Bar & Canteen", "old_name:2012-2015": "Southport Bar & Grill", "old_name:2015-2016-06": "School Yard Bar & Grill", "opening_hours": "Tu-Fr 16:00-19:00; Sa 15:00-19:00", "phone": "+1-262-412-9334", "source": "https://onmilwaukee.com/bars/articles/schoolyardclosed.html", "website": "https://frankiesfrankies.com/"}}, {"type": "node", "id": 6432106516, "lat": 43.0595862, "lon": -87.885834}, {"type": "node", "id": 6432106519, "lat": 43.0593785, "lon": -87.8858997, "tags": {"access": "private", "entrance": "service"}}, {"type": "node", "id": 6432106522, "lat": 43.0595164, "lon": -87.8859026, "tags": {"access": "customers", "entrance": "yes"}}, {"type": "node", "id": 6432106616, "lat": 43.0593923, "lon": -87.8857518}, {"type": "node", "id": 6468480722, "lat": 43.0582342, "lon": -87.8851316, "tags": {"access": "private", "entrance": "service"}}, {"type": "node", "id": 6515521094, "lat": 43.0599895, "lon": -87.8834365, "tags": {"access": "customers", "addr:city": "Milwaukee", "addr:housenumber": "2207", "addr:postcode": "53202", "addr:state": "WI", "addr:street": "East North Avenue", "amenity": "restaurant", "contact:facebook": "https://www.facebook.com/pg/Judysonnorth/", "contact:phone": "+1 414 291 0645", "contact:yelp": "https://www.yelp.com/biz/judy-s-on-north-milwaukee", "covered": "yes", "cuisine": "mexican", "name": "Judy\u2019s on North", "name:1979-2018": "Jalisco Mexican Restaurant", "opening_hours": "Mo-Th 11:00-03:00; Fr-Sa 11:00-04:00", "start_date": "2019-02"}}, {"type": "node", "id": 6515656027, "lat": 43.0600115, "lon": -87.8848113, "tags": {"access": "customers", "covered": "yes", "entrance": "service"}}, {"type": "node", "id": 6515677586, "lat": 43.060013, "lon": -87.8849659}, {"type": "node", "id": 6515677591, "lat": 43.0600046, "lon": -87.8850145, "tags": {"entrance": "yes"}}, {"type": "node", "id": 6515677592, "lat": 43.0599862, "lon": -87.8849968, "tags": {"atm": "yes", "covered": "yes", "support": "wall_mounted"}}, {"type": "node", "id": 6515677593, "lat": 43.0600131, "lon": -87.8849933}, {"type": "node", "id": 6515677600, "lat": 43.0599894, "lon": -87.8850029}, {"type": "node", "id": 6515677601, "lat": 43.0599534, "lon": -87.8849337, "tags": {"man_made": "surveillance", "support": "wall_mounted", "surveillance": "outdoor", "surveillance:type": "camera"}}, {"type": "node", "id": 6515677602, "lat": 43.0599372, "lon": -87.884902, "tags": {"access": "private", "entrance": "service", "level": "-1"}}, {"type": "node", "id": 6515677603, "lat": 43.059919, "lon": -87.8848666}, {"type": "node", "id": 6515677606, "lat": 43.0599404, "lon": -87.8849083}, {"type": "node", "id": 6515677698, "lat": 43.0600014, "lon": -87.8847521}, {"type": "node", "id": 6789535240, "lat": 43.0528344, "lon": -87.8958097, "tags": {"addr:city": "Milwaukee", "addr:housenumber": "1233", "addr:postcode": "53202", "addr:state": "WI", "addr:street": "East Brady Street", "amenity": "restaurant", "branch": "Milwaukee", "contact:facebook": "https://www.facebook.com/twistedplantsmke/", "cuisine": "american;burger", "diet:vegan": "yes", "diet:vegetarian": "yes", "drive_through": "no", "name": "Twisted Plants", "not:brand:wikidata": "Q5178843", "old_name:2020": "Cousins Subs", "opening_date": "2022-06", "opening_hours": "Tu-Sa 11:00-22:00; Su-Mo off", "phone": "+1-414-837-3038", "takeaway": "yes", "website": "https://www.twistedplants.com/"}}, {"type": "node", "id": 6793975641, "lat": 43.0534149, "lon": -87.8927439, "tags": {"access": "customers", "addr:city": "Milwaukee", "addr:housenumber": "1434", "addr:postcode": "53202", "addr:state": "WI", "addr:street": "East Brady Street", "amenity": "restaurant", "contact:phone": "+1 414 278 9464", "contact:website": "https://wingsovermilwaukee.com", "contact:yelp": "https://www.yelp.com/biz/wings-over-milwaukee-milwaukee", "covered": "yes", "cuisine": "wings", "delivery": "yes", "entrance": "yes", "name": "Wings Over Milwaukee", "opening_hours": "Mo-Th 16:00-01:00; Fr-Sa 11:00-03:00; Su 11:00-01:00", "takeaway": "yes"}}, {"type": "node", "id": 7280420191, "lat": 43.0597394, "lon": -87.8913857, "tags": {"access": "private", "entrance": "service"}}, {"type": "node", "id": 7280420192, "lat": 43.0598766, "lon": -87.8914194}, {"type": "node", "id": 11609159162, "lat": 43.0538469, "lon": -87.9029898, "tags": {"addr:city": "Milwaukee", "addr:housenumber": "1758", "addr:postcode": "53202", "addr:state": "WI", "addr:street": "North Water Street", "amenity": "restaurant", "email": "info@taurococina.com", "name": "Tauro Cocina", "old_name:1890": "Joseph Schlitz Brewing Company Saloon", "old_name:2001": "Trocadero Gastrobar", "old_name:2017-07-2019-12": "DiModa Pizza & Hotspot", "opening_hours": "Tu-Th 17:00-21:00; Fr 17:00-22:00; Sa 11:00-22:00; Su 11:00-21:00", "outdoor_seating": "yes", "phone": "+1-414-488-2941", "source": "https://onmilwaukee.com/dining/articles/dimoda-pizza-and-hotspot-has-closed.html", "website": "https://taurococina.com/"}}, {"type": "node", "id": 12178532001, "lat": 43.057685, "lon": -87.8876202, "tags": {"addr:city": "Milwaukee", "addr:housenumber": "2100", "addr:postcode": "53202", "addr:state": "WI", "addr:street": "North Farwell Avenue", "amenity": "restaurant", "cuisine": "bagel", "name": "Allie Boy\u2019s Bagelry and Luncheonette", "opening_hours": "Th-Fr 07:30-14:00; Sa-Su 08:00-14:00", "start_date": "2024-08-01", "website": "https://allieboysmke.com/"}}, {"type": "node", "id": 12178532004, "lat": 43.0580632, "lon": -87.8872629, "tags": {"addr:city": "Milwaukee", "addr:housenumber": "2124", "addr:postcode": "53202", "addr:state": "WI", "addr:street": "North Farwell Avenue", "amenity": "restaurant", "capacity": "100", "contact:facebook": "https://www.facebook.com/Judysonnorth", "cuisine": "mexican", "name": "Judy's Cantina", "old_name:2013-2021": "Simple Caf\u00e9", "opening_hours": "Mo-Fr 06:00-15:00; Sa 07:00-15:00; Su 08:00-15:00", "start_date": "2024-09", "website": "https://www.judyscantina.com/", "wheelchair": "yes"}}, {"type": "node", "id": 12178532006, "lat": 43.0579247, "lon": -87.8873843, "tags": {"addr:city": "Milwaukee", "addr:housenumber": "2116", "addr:postcode": "53202", "addr:state": "WI", "addr:street": "North Farwell Avenue", "amenity": "restaurant", "capacity": "50", "contact:email": "backstreetbbqhotpot@gmail.com", "contact:facebook": "https://www.facebook.com/people/Back-street-Bbqhotpot/61558018529037/", "contact:phone": "+1-414-885-0028;+1-414-270-1908", "contact:yelp": "https://www.yelp.com/biz/fushinami-milwaukee-2", "cuisine": "korean;barbecue", "name": "Back Street BBQ & Hotpot", "old_name:2013-2022": "Fushimi", "start_date": "2024-03", "wheelchair": "yes"}}, {"type": "node", "id": 12607210291, "lat": 43.0594236, "lon": -87.8867732, "tags": {"addr:city": "Milwaukee", "addr:housenumber": "1857", "addr:postcode": "53202", "addr:state": "WI", "addr:street": "East Kenilworth Place", "amenity": "restaurant", "brand": "Jet's Pizza", "brand:wikidata": "Q16997713", "cuisine": "pizza", "name": "Jet's Pizza", "opening_hours": "Su-Th 10:00-24:00; Fr-Sa 10:00-03:00", "phone": "+1-414-276-3000", "website": "https://www.jetspizza.com/stores/wisconsin/milwaukee/1857-e-kenilworth-pl/"}}, {"type": "node", "id": 12744432545, "lat": 43.0566926, "lon": -87.888608, "tags": {"addr:city": "Milwaukee", "addr:housenumber": "1978", "addr:postcode": "53202", "addr:state": "WI", "addr:street": "North Farwell Avenuecapacity=50", "amenity": "restaurant", "capacity": "50", "diet:vegetarian": "yes", "name": "Temple Goddess Cafe", "old_name:1972": "Abu's Jerusalem of the Gold", "old_name:2011": "Jow Nai Fouq\u00eat", "old_name:2018-2021": "Celesta", "old_name:2021-2024": "The Lafayette Place", "opening_date": "2025-06-01", "opening_hours": "Su-Th 08:00-20:00; We off; Fr-Sa 08:00-21:00", "phone": "+1-414-212-8111", "website": "https://templegoddesscafe.com/", "wheelchair": "yes"}}, {"type": "way", "id": 183095129, "nodes": [4770490675, 1934596276, 1934596231, 4770490659, 1934596228, 1934596272, 4770490670, 1934596289, 4770490671, 4770490672, 1934596291, 1934596323, 1934596319, 4770490684, 4770490681, 4770490666, 4770490682, 4770490683, 4770490667, 4770490680, 4770490679, 4770490668, 4770490678, 4770490677, 4770490685, 4770490676, 4770490661, 4770490675], "tags": {"addr:city": "Milwaukee", "addr:housenumber": "1935", "addr:postcode": "53202", "addr:state": "WI", "addr:street": "North Water Street", "amenity": "restaurant", "building": "retail", "building:architect": "Kevin Rogers; Scott Kindness - Workshop Architects", "building:material": "wood; glass; brick", "contact:email": "belaircantina@gmail.com", "contact:phone": "+1 414 226 2245", "contact:website": "http://belaircantina.com", "cuisine": "mexican", "delivery": "yes", "name": "BelAir Cantina", "name:2006-2009": "Good Life", "name:2010": "BelAir Cantina", "opening_hours": "Mo-Fr 11:00+; Sa-Su 10:00+", "outdoor_seating": "yes", "source": "http://assessments.milwaukee.gov; https://onmilwaukee.com/dining/articles/goodlife1.html", "start_date": "2005", "takeaway": "yes"}}, {"type": "way", "id": 183248584, "nodes": [1936250192, 4518436677, 4518437099, 4518437100, 4518436675, 4518436671, 1936250193, 4363400735, 4518436672, 4518436674, 1936250195, 4363400736, 1936250194, 4518436681, 4518436679, 1936250192], "tags": {"addr:city": "Milwaukee", "addr:housenumber": "728", "addr:postcode": "53202", "addr:state": "WI", "addr:street": "East Brady Street", "amenity": "restaurant", "building": "retail", "building:architecture": "contemporary", "building:levels": "2", "contact:email": "casaonbrady@gmail.com", "contact:facebook": "https://www.facebook.com/CasablancaOnBrady", "contact:phone": "+1 414 271 6000", "contact:website": "https://casablancaonbrady.com/", "contact:yelp": "https://www.yelp.com/biz/casablanca-milwaukee", "cuisine": "mediterranean", "delivery": "yes", "historic": "building", "name": "Casablanca", "name:1987": "The Sahara Inn", "name:1990": "Casablanca", "opening_hours": "11:00-02:00", "outdoor_seating": "yes", "source": "https://wisconsinhistory.org/Records/Property/HI98923; http://assessments.milwaukee.gov", "start_date": "1956", "takeaway": "yes"}}, {"type": "way", "id": 183249002, "nodes": [6357400851, 4516557108, 1936257232, 4516543700, 1936257253, 1936257252, 1936257248, 4516557106, 1936257249, 6357400849, 6357400853, 6357400851], "tags": {"addr:city": "Milwaukee", "addr:housenumber": "1010", "addr:postcode": "53202", "addr:state": "WI", "addr:street": "East Brady Street", "amenity": "restaurant", "building": "retail", "building:architect": "Donald Forbes", "building:architecture": "contemporary", "building:levels": "1", "building:material": "brick", "contact:facebook": "https://www.facebook.com/pg/EmperorOfChinaMKE/", "contact:phone": "+1 414 271 8889", "contact:website": "https://emperorofchinarestaurant.com/", "cuisine": "chinese", "delivery": "yes", "historic": "building", "name": "Emperor of China", "name:1986": "Emperor of China", "opening_hours": "11:30-21:00", "reservation": "yes", "source": "https://wisconsinhistory.org/Records/Property/HI98941", "start_date": "1961", "takeaway": "yes"}}, {"type": "way", "id": 221205226, "nodes": [2302600308, 4543552905, 4543552910, 4543552906, 4543552909, 4543552913, 4543552918, 4543552920, 4543552904, 4543552902, 4540368949, 4543552901, 4543552903, 4543552916, 4540368950, 4543552923, 2302600330, 2302600322, 4543784182, 4543784183, 4543552922, 4543784184, 4543784179, 4543784180, 2302600308], "tags": {"addr:city": "Milwaukee", "addr:housenumber": "1827", "addr:postcode": "53202", "addr:state": "WI", "addr:street": "North Farwell Avenue", "amenity": "restaurant", "building": "retail", "building:levels": "2", "building:material": "concrete", "contact:email": "pizzamail@pizzashuttle.com", "contact:fax": "+1 414 289 9633", "contact:fax_business": "+1 414 289 9611", "contact:phone": "+1 414 289 9993", "contact:website": "http://www.pizzashuttle.com", "cuisine": "pizza", "delivery": "yes", "name": "Pizza Shuttle", "opening_hours": "10:00-02:00", "service_times": "Su-Th 10:00-03:00; Fr-Sa 10:00-04:00", "source": "https://wisconsinhistory.org/Records/Property/HI106624; http://assessments.milwaukee.gov", "start_date": "1986", "takeaway": "yes"}}, {"type": "way", "id": 376170018, "nodes": [3796263926, 3796263927, 4518436687, 3796263928, 4518437090, 3796263919, 3796263920, 3796263921, 3796263924, 3796263925, 4518437091, 4518437092, 3796263926], "tags": {"addr:city": "Milwaukee", "addr:housenumber": "714", "addr:postcode": "53202", "addr:state": "WI", "addr:street": "East Brady Street", "amenity": "restaurant", "building": "commercial", "building:architect": "B. Franceschi", "building:architecture": "contemporary", "building:levels": "1", "building:material": "fieldstone", "building:use": "retail", "contact:phone": "+1 414 226 9999", "contact:website": "https://zaynaspizza.com/", "cuisine": "italian", "delivery": "yes", "historic": "building", "name": "Zayna's Pizza", "opening_hours": "Su-Th 16:00-02:00; Fr-Sa 16:00-03:00", "source": "https://wisconsinhistory.org/Records/Property/HI98919; http://assessments.milwaukee.gov", "start_date": "1971", "takeaway": "yes"}}, {"type": "way", "id": 414050333, "nodes": [4152551732, 4152551733, 4152551737, 4154033298, 6067421204, 6067421201, 4154033301, 4154033300, 4152551736, 4152551745, 4154033302, 4152551744, 6067421209, 4154033297, 4152551728, 4152551729, 4152551730, 4152551731, 4152551732], "tags": {"addr:city": "Milwaukee", "addr:housenumber": "1547", "addr:postcode": "53202", "addr:state": "WI", "addr:street": "North Jackson Street", "amenity": "restaurant", "building": "retail", "building:architect": "C.O. Parsons", "building:architecture": "arts_and_crafts", "building:levels": "2", "building:levels:underground": "1", "building:material": "brick", "building:units": "4", "building:use": "retail; apartments", "contact:fax": "+1 414 278 8509", "contact:phone": "+1 414 276 9608", "contact:website": "http://sanfordrestaurant.com", "cuisine": "new_american", "name": "Sanford", "opening_hours": "Mo-Th 17:30-21:00; Fr 17:30-22:00; Sa 17:00-22:00", "source": "http://assessments.milwaukee.gov/remast.asp?taxkey=3921764000; https://wisconsinhistory.org/Records/Property/HI107769", "start_date": "1927"}}, {"type": "way", "id": 426873537, "nodes": [4261314573, 4261314577, 4261314606, 4261314612, 4261314617, 4261314621, 4265479428, 4265479426, 4261314564, 4261314543, 4261314554, 4261314573], "tags": {"addr:city": "Milwaukee", "addr:housenumber": "1550", "addr:postcode": "53202", "addr:state": "WI", "addr:street": "North Farwell Avenue", "amenity": "restaurant", "building": "retail", "building:architect": "Lindl Schutte, Inc.", "building:architecture": "mediterranean_revival", "building:levels": "1", "building:material": "stucco", "contact:email": "info@maharajarestaurants.com", "contact:facebook": "https://www.facebook.com/maharajamke", "contact:fax": "+1 414 276 3412", "contact:phone": "+1 414 276 2250", "contact:website": "https://maharajarestaurants.com/", "contact:yelp": "https://www.yelp.com/biz/maharaja-milwaukee", "cuisine": "indian", "delivery": "yes", "name": "Maharaja", "name:1997": "Maharaja", "opening_hours": "Su-Th 11:30-15:00, 17:00-21:00; Fr-Sa 11:30-15:00, 17:00-22:00", "outdoor_seating": "yes", "source": "http://assessments.milwaukee.gov; https://www.wisconsinhistory.org/Records/Property/HI106574", "start_date": "1926", "takeaway": "yes"}}, {"type": "way", "id": 432950048, "nodes": [4318741208, 4318739128, 4318741207, 4318741206, 4318739129, 4318739130, 4318741205, 4318741193, 4318741192, 4318741190, 4318741053, 4318741043, 4318741042, 4318741041, 4318741037, 4318741020, 4318741019, 4318741013, 4318741014, 4318741010, 4318741011, 4318741012, 4318739142, 4318739127, 4318741069, 4318741208], "tags": {"addr:city": "Milwaukee", "addr:housenumber": "1301; 1303; 1305; 1307", "addr:postcode": "53202", "addr:state": "WI", "addr:street": "East Brady Street", "amenity": "restaurant", "building": "retail", "building:architecture": "front_gabled", "building:levels": "1", "building:levels:underground": "1", "building:material": "clapboard", "contact:facebook": "https://www.facebook.com/DORSIA.MKE/", "contact:phone": "+1 414 539 6826", "contact:website": "https://www.dorsiamke.com/", "contact:yelp": "https://www.yelp.com/biz/dorsia-milwaukee", "cuisine": "italian", "delivery": "yes", "historic": "building", "name": "DORSIA", "name:1988-2017": "Mimma's Caf\u00e9", "name:2017": "DORSIA", "opening_hours": "Mo-Tu,Th 16:00-24:00; We,Fr 16:00-02:00; Sa 11:00-02:00; Su 11:00-24:00", "outdoor_seating": "yes", "roof:levels": "1", "source": "http://assessments.milwaukee.gov; https://www.wisconsinhistory.org/Records/Property/HIhttps://www.wisconsinhistory.org/Records/Property/HI51103", "start_date": "1882", "takeaway": "yes"}}, {"type": "way", "id": 439039481, "nodes": [4366643756, 4424569998, 4424570000, 4424570005, 4366643908, 4366643907, 4424570008, 4366643926, 4424570009, 4366643925, 4366643755, 4424569997, 4366643756], "tags": {"addr:city": "Milwaukee", "addr:housenumber": "1664", "addr:postcode": "53202-2018", "addr:state": "WI", "addr:street": "North Van Buren Street", "amenity": "restaurant", "building": "retail", "building:architecture": "contemporary", "building:levels": "1", "building:material": "brick", "contact:facebook": "https://www.facebook.com/pg/luckyliusmke/", "contact:fax": "+1 414 223 1667", "contact:phone": "+1 414 223 1699", "contact:website": "https://www.luckylius.com/", "cuisine": "chinese;japanese", "delivery": "yes", "name": "Lucky Liu's", "name:2009": "Lucky Liu's", "opening_hours": "Mo-Th 11:00-21:45; Fr-Sa 11:00-22:45; Su 13:00-21:45", "source": "http://assessments.milwaukee.gov; https://www.wisconsinhistory.org/Records/Property/HI101544", "start_date": "1958", "takeaway": "yes"}}, {"type": "way", "id": 451969299, "nodes": [4487729241, 4487729235, 4487729246, 4487729249, 4487729250, 4487729256, 4487729272, 4487729274, 4487729275, 4487729278, 4487729265, 4487729259, 4487729245, 4487729243, 4487729241], "tags": {"addr:city": "Milwaukee", "addr:housenumber": "1724", "addr:postcode": "53202", "addr:state": "WI", "addr:street": "North Farwell Avenue", "amenity": "restaurant", "branch": "Milwaukee East Side", "building:levels": "1", "building:material": "brick", "building:part": "retail", "contact:phone": "+1 414 289 8776", "contact:website": "http://zaffirospizza.com", "cuisine": "italian", "delivery": "yes", "name": "Zaffiro's Pizza", "opening_hours": "Mo-Th 11:00-23:00; Fr-Sa 11:00-24:00; Su 11:00-22:00", "outdoor_seating": "yes", "start_date": "1954", "takeaway": "yes"}}, {"type": "way", "id": 452199168, "nodes": [4489906188, 4489906187, 4489906178, 4489906186, 4489906185, 4489906179, 4489906493, 4489906181, 4489906182, 4489906188], "tags": {"addr:city": "Milwaukee", "addr:housenumber": "1300", "addr:postcode": "53202", "addr:state": "WI", "addr:street": "East Brady Street", "amenity": "restaurant", "building:levels": "2", "building:material": "aluminum/vinyl_siding", "building:part": "retail", "contact:email": "info@lamasaempanadas.com", "contact:phone": "+1 414 885 1866", "contact:website": "https://lamasaempanadas.com/", "contact:yelp": "https://www.yelp.com/biz/la-masa-empanada-bar-milwaukee-2", "cuisine": "empanada", "delivery": "yes", "name": "La Masa Empanada Bar", "name:2015": "World of Beer", "name:2016": "La Masa Empanada Bar", "opening_hours": "Mo-Th 11:00-23:00; Fr 11:00-01:00; Sa 10:00-01:00; Su 10:00-23:00", "outdoor_seating": "yes", "short_name": "La Masa", "takeaway": "yes"}}, {"type": "way", "id": 473896151, "nodes": [4679285391, 6417100090, 6417099173, 6417099170, 6417099174, 6417099175, 6468480722, 6417099176, 5649690226, 4679285390, 6417100086, 6417100085, 6417099184, 6417100091, 4679285391], "tags": {"addr:city": "Milwaukee", "addr:housenumber": "2178", "addr:postcode": "53202", "addr:state": "WI", "addr:street": "North Prospect Avenue", "amenity": "restaurant", "building": "retail", "building:architecture": "contemporary", "building:levels": "1", "contact:facebook": "https://www.facebook.com/pages/Seoul-Korean-Restaurant/116440595047392", "contact:phone": "+1 414 289 8208", "contact:yelp": "https://www.yelp.com/biz/seoul-korean-restaurant-milwaukee", "cuisine": "korean", "delivery": "no", "name": "Seoul Restaurant", "name:1988-2003": "Izumi's", "name:2003": "vacant", "opening_hours": "Mo-Th 16:30-22:30; Fr-Sa 16:30-24:00", "outdoor_seating": "no", "reservation": "yes", "source": "http://assessments.milwaukee.gov; https://wisconsinhistory.org/Records/Property/HI105045", "takeaway": "yes"}}, {"type": "way", "id": 484304295, "nodes": [1934596272, 4770490675, 1934596276, 1934596231, 4770490659, 1934596228, 1934596272], "tags": {"addr:city": "Milwaukee", "addr:housenumber": "1935", "addr:postcode": "53202", "addr:state": "WI", "addr:street": "North Water Street", "amenity": "restaurant", "building": "yes", "building:levels": "1", "building:material": "wood;glass", "cuisine": "mexican", "name": "BelAir Cantina", "phone": "+1-414-226-2245", "roof:colour": "#bcc6d5", "roof:levels": "0.5", "roof:shape": "round", "start_date": "2005", "website": "https://belaircantina.com/"}}, {"type": "way", "id": 662749025, "nodes": [6515677698, 6204331291, 6515677603, 6515677602, 6515677606, 6515677601, 6515677592, 6515677600, 6204331290, 6515677591, 6204331289, 6515677593, 6515677586, 6204366904, 6204366903, 6204366902, 6204366901, 6515656027, 6204331288, 6515677698], "tags": {"addr:city": "Milwaukee", "addr:housenumber": "2017", "addr:postcode": "53202", "addr:state": "WI", "addr:street": "East North Avenue", "amenity": "restaurant", "building": "retail", "building:architect": "Henry Messmer", "building:architecture": "queen_anne", "building:levels": "2", "building:levels:underground": "1", "building:material": "brick", "building:units": "1", "contact:facebook": "https://www.facebook.com/pg/hooliganssuperbar/", "contact:fax": "+1 414 727 5598", "contact:phone": "+1 414 273 5230", "contact:website": "https://www.hooliganssuperbar.com", "contact:yelp": "https://www.yelp.com/biz/hooligans-milwaukee", "cuisine": "american", "delivery": "no", "internet_access": "wlan", "internet_access:fee": "no", "name": "Hooligan's Super Bar", "name:1935": "The Hub Cafe", "name:1936": "Shinners for Mayor Club", "name:1940": "Wells for Congress Club Campaign Headquarters", "name:1941": "Felton Thompson's Tavern", "name:1945-01": "Hooligan's Super Bar", "opening_hours": "Su-Th 11:00-02:00; Fr 11:00-02:30; Sa 10:00-02:30", "outdoor_seating": "yes", "reservation": "no", "source": "http://assessments.milwaukee.gov/; https://www.wisconsinhistory.org/Records/Property/HI104416; https://urbanmilwaukee.com/2018/02/19/bar-exam-what-makes-hooligans-a-landmark/", "start_date": "1890-03-22", "takeaway": "yes"}}, {"type": "way", "id": 662749216, "nodes": [6204332883, 6204332882, 6204332881, 6351156923, 6351156921, 6351156916, 7280420192, 6351156920, 6204332880, 7280420191, 6204332883], "tags": {"addr:city": "Milwaukee", "addr:housenumber": "1515", "addr:postcode": "53202", "addr:state": "WI", "addr:street": "East North Avenue", "amenity": "restaurant", "branch": "Milwaukee", "brand": "D.P. Dough", "brand:wikidata": "Q22008973", "building": "retail", "building:architecture": "contemporary", "building:levels": "1", "building:material": "concrete", "contact:facebook": "https://www.facebook.com/DPDoughMKE/", "contact:phone": "+1 414 775 0555", "contact:website": "https://dpdough.com/olo/?storeId=7e5ad653-4fe9-414b-a25a-cc18b9dbf1df", "cuisine": "calzone", "delivery": "yes", "name": "D.P. Dough", "name:2000": "Open Pantry", "name:2019-06": "D.P. Dough", "opening_hours": "Su-Th 11:00-03:00; Fr-Sa 11:00-04:00", "source": "http://assessments.milwaukee.gov/remast.asp?taxkey=3550103000; https://wisconsinhistory.org/Records/Property/HI104271; https://urbanmilwaukee.com/2018/01/23/dining-new-calzone-restaurant-for-east-side/", "start_date": "1973", "takeaway": "yes"}}, {"type": "way", "id": 662920104, "nodes": [6204332775, 6432106519, 6204332774, 6432106522, 6204332773, 6432106516, 6204332772, 6204332771, 6205760207, 6432106616, 6204332775], "tags": {"addr:city": "Milwaukee", "addr:housenumber": "2214", "addr:postcode": "53202", "addr:state": "WI", "addr:street": "North Farwell Avenue", "alt_name": "Ma Fischer's Family Restaurant", "amenity": "restaurant", "atm": "yes", "building": "yes", "building:architecture": "contemporary", "building:levels": "1", "building:material": "brick", "contact:facebook": "https://www.facebook.com/pg/Ma-Fischers-Restaurant-121071444629014/", "contact:phone": "+1 414 271 7424", "cuisine": "american", "name": "Ma Fischer's", "opening_hours": "24/7", "outdoor_seating": "yes", "roof:levels": "1", "source": "http://assessments.milwaukee.gov; https://www.wisconsinhistory.org/Records/Property/HI106658", "start_date": "1947", "takeaway": "yes"}}, {"type": "way", "id": 678301715, "nodes": [6351293061, 6351293048, 6351293045, 6351293046, 6351293060, 6204332827, 6204332828, 6351293051, 6351293050, 6351293047, 6351293061], "tags": {"addr:unit": "Suite C", "amenity": "restaurant", "building:levels": "1", "building:material": "brick", "building:part": "retail", "contact:phone": "+1 414 273 6688", "contact:website": "http://www.asianfusionwi.com/", "contact:yelp": "https://www.yelp.com/biz/asian-fusion-milwaukee", "cuisine": "chinese", "delivery": "yes", "height": "14 ft", "internet_access": "wlan", "internet_access:fee": "no", "name": "Asian Fusion", "opening_hours": "Mo,We-Th 11:00-22:00; Fr-Sa 11:00-23:00; Su 12:00-22:00", "outdoor_seating": "no", "source": "https://onmilwaukee.com/dining/articles/asianfusionopens15.html", "start_date": "2016-01-09", "takeaway": "yes"}}]}