{"version": 0.6, "generator": "Overpass API 0.7.62.8 e802775f", "osm3s": {"timestamp_osm_base": "2025-11-28T23:18:34Z", "copyright": "The data included in this document is from www.openstreetmap.org. The data is made available under ODbL."}, "elements": [{"type": "node", "id": 60665830, "lat": 47.6554523, "lon": -122.3131495, "tags": {"addr:city": "Seattle", "addr:country": "US", "addr:housenumber": "4002", "addr:postcode": "98105", "addr:state": "WA", "addr:street": "University Way Northeast", "amenity": "restaurant", "check_date": "2024-07-24", "contact:phone": "+1-206-566-5136", "contact:yelp": "https://www.yelp.com/biz/basil-viet-kitchen-seattle?osq=Basil+Viet+Kitchen", "cuisine": "thai;vietnamese", "diet:vegan": "yes", "diet:vegetarian": "yes", "name": "Basil Viet Kitchen", "opening_hours": "Mo-Fr 11:00-21:00; Sa-Su 11:00-20:00", "outdoor_seating": "no"}}, {"type": "node", "id": 1155193509, "lat": 47.6515374, "lon": -122.3142425}, {"type": "node", "id": 1155193533, "lat": 47.6514923, "lon": -122.3143982}, {"type": "node", "id": 1155193549, "lat": 47.6515958, "lon": -122.314187}, {"type": "node", "id": 1155193605, "lat": 47.6515384, "lon": -122.3142114}, {"type": "node", "id": 1155193637, "lat": 47.6515222, "lon": -122.3143738}, {"type": "node", "id": 1155193756, "lat": 47.6515344, "lon": -122.3142006}, {"type": "node", "id": 1155193821, "lat": 47.6515001, "lon": -122.3143146}, {"type": "node", "id": 1155193958, "lat": 47.6515353, "lon": -122.3145137}, {"type": "node", "id": 1155194106, "lat": 47.6515094, "lon": -122.3142653}, {"type": "node", "id": 1155194148, "lat": 47.6515213, "lon": -122.3142973}, {"type": "node", "id": 1155194274, "lat": 47.6515852, "lon": -122.3141957}, {"type": "node", "id": 1411669004, "lat": 47.6579925, "lon": -122.3133866, "tags": {"addr:city": "Seattle", "addr:housenumber": "4139", "addr:postcode": "98105", "addr:street": "University Way Northeast", "amenity": "restaurant", "check_date": "2025-11-21", "cuisine": "kebab", "diet:vegan": "yes", "diet:vegetarian": "yes", "name": "Aladdin Gyro-cery & Deli"}}, {"type": "node", "id": 1411670996, "lat": 47.6581295, "lon": -122.3142098, "tags": {"addr:city": "Seattle", "addr:housenumber": "4142", "addr:postcode": "98105", "addr:street": "Brooklyn Avenue Northeast", "amenity": "restaurant", "check_date": "2025-04-22", "cuisine": "vietnamese", "diet:vegan": "yes", "diet:vegetarian": "yes", "name": "Saigon Deli", "opening_hours": "Mo-Fr 10:00-21:00; Sa-Su 11:30-20:00", "phone": "+1-206-634-2866", "source": "local knowledge/joe's workshop;King County GIS", "takeaway": "yes"}}, {"type": "node", "id": 1411671077, "lat": 47.6593411, "lon": -122.3133401, "tags": {"addr:city": "Seattle", "addr:housenumber": "4235", "addr:postcode": "98105", "addr:street": "University Way Northeast", "amenity": "restaurant", "check_date": "2025-11-21", "cuisine": "vietnamese", "diet:vegan": "yes", "diet:vegetarian": "yes", "name": "Pho Shizzle", "opening_hours": "10:00-22:00", "phone": "+1-206-632-1078"}}, {"type": "node", "id": 1411671655, "lat": 47.6594156, "lon": -122.313348, "tags": {"addr:city": "Seattle", "addr:housenumber": "4237", "addr:postcode": "98105", "addr:street": "University Way Northeast", "amenity": "restaurant", "check_date": "2025-11-21", "internet_access": "wlan", "name": "Call A Chicken", "short_name": "CAC"}}, {"type": "node", "id": 1411674734, "lat": 47.6595358, "lon": -122.3133282, "tags": {"addr:city": "Seattle", "addr:housenumber": "4241", "addr:postcode": "98105", "addr:street": "University Way Northeast", "amenity": "restaurant", "check_date": "2025-11-21", "name": "Bite and Bento"}}, {"type": "node", "id": 1411675169, "lat": 47.6579661, "lon": -122.3130645, "tags": {"addr:city": "Seattle", "addr:country": "US", "addr:housenumber": "4138", "addr:postcode": "98105", "addr:street": "University Way Northeast", "amenity": "restaurant", "check_date": "2025-11-21", "cuisine": "japanese", "diet:vegan": "yes", "diet:vegetarian": "yes", "name": "Samurai Noodle", "opening_hours": "Tu-Su 11:30-16:00,17:00-20:00", "outdoor_seating": "no", "payment:cash": "yes", "payment:credit_cards": "yes", "payment:debit_cards": "yes", "phone": "+1-206-547-1774", "start_date": "2006", "website": "https://www.samurainoodle.com", "wheelchair": "yes"}}, {"type": "node", "id": 1411675303, "lat": 47.6596112, "lon": -122.3133326, "tags": {"addr:city": "Seattle", "addr:housenumber": "4245", "addr:postcode": "98105", "addr:street": "University Way Northeast", "amenity": "restaurant", "check_date": "2025-11-21", "cuisine": "chinese", "name": "N\u00faodle Express", "opening_hours": "Mo-Su 11:00-21:00", "phone": "+1-206-775-3333", "website:menu": "https://www.restaurantji.com/wa/seattle/nuodle-express-/menu/"}}, {"type": "node", "id": 1411675888, "lat": 47.6586007, "lon": -122.3133668, "tags": {"addr:city": "Seattle", "addr:housenumber": "4207", "addr:postcode": "98105", "addr:street": "University Way Northeast", "amenity": "restaurant", "check_date": "2025-11-21", "cuisine": "vietnamese", "level": "0", "name": "Pho Than Brothers", "opening_hours": "10:00-20:00"}}, {"type": "node", "id": 1411676388, "lat": 47.6589856, "lon": -122.313368, "tags": {"addr:city": "Seattle", "addr:housenumber": "4221", "addr:postcode": "98105", "addr:street": "University Way Northeast", "amenity": "restaurant", "check_date": "2025-11-21", "diet:vegan": "yes", "diet:vegetarian": "yes", "name": "BB's Teriyaki Grill"}}, {"type": "node", "id": 1411680029, "lat": 47.6571914, "lon": -122.313075, "tags": {"addr:city": "Seattle", "addr:housenumber": "4108", "addr:postcode": "98105", "addr:street": "University Way Northeast", "alt_name": "University Teriyaki", "amenity": "restaurant", "checked_exists:date": "2021-06-01", "cuisine": "japanese", "diet:vegetarian": "yes", "name": "University Teriyaki and Bakery", "opening_hours": "Su-Fr 11:00-20:30", "source": "King County GIS;data.seattle.gov", "website": "http://www.universityteriyaki.com"}}, {"type": "node", "id": 1411680120, "lat": 47.6588175, "lon": -122.313363, "tags": {"addr:city": "Seattle", "addr:housenumber": "4215", "addr:postcode": "98105", "addr:street": "University Way Northeast", "amenity": "restaurant", "check_date": "2025-11-21", "cuisine": "poke", "name": "Poke Bay", "opening_hours": "Mo-Su 11:00-22:00"}}, {"type": "node", "id": 1411680133, "lat": 47.6569986, "lon": -122.31417, "tags": {"addr:city": "Seattle", "addr:country": "US", "addr:housenumber": "4106", "addr:postcode": "98105", "addr:state": "WA", "addr:street": "Brooklyn Avenue Northeast", "addr:unit": "102B", "amenity": "restaurant", "cuisine": "taiwanese", "name": "MISS MIKE Bento and Noodle", "name:en": "MISS MIKE Bento and Noodle", "name:zh": "\u53f0\u7063\u98a8\u5473\u9910\u9928", "opening_hours": "Tu-Su 11:00-20:00", "website": "https://www.missmikebentonoodles.com/"}}, {"type": "node", "id": 1411680134, "lat": 47.6571228, "lon": -122.3141689, "tags": {"addr:city": "Seattle", "addr:housenumber": "4106", "addr:postcode": "98105", "addr:street": "Brooklyn Avenue Northeast", "addr:unit": "102A", "amenity": "restaurant", "cuisine": "salvadoran", "diet:vegetarian": "yes", "name": "Guanaco's Tacos & Pupuseria", "source": "King County GIS;data.seattle.gov"}}, {"type": "node", "id": 1411680588, "lat": 47.6573018, "lon": -122.3130587, "tags": {"addr:city": "Seattle", "addr:housenumber": "4114", "addr:postcode": "98105", "addr:street": "University Way Northeast", "amenity": "restaurant", "check_date": "2023-04-21", "checked_exists:date": "2015-06-17", "diet:vegetarian": "yes", "name": "Shultzy's Bar And Grill", "opening_hours": "Mo-Fr 11:00-02:00; Sa 11:30-02:00; Su 11:30-22:00", "phone": "+1-206-548-9461", "source": "King County GIS;data.seattle.gov", "website": "https://www.shultzys.com/", "wheelchair": "yes"}}, {"type": "node", "id": 1411680620, "lat": 47.6587941, "lon": -122.3130382, "tags": {"addr:city": "Seattle", "addr:housenumber": "4214", "addr:postcode": "98105", "addr:street": "University Way Northeast", "amenity": "restaurant", "check_date": "2025-11-21", "cuisine": "thai", "name": "Jai Thai"}}, {"type": "node", "id": 1411681237, "lat": 47.6569977, "lon": -122.313987, "tags": {"addr:city": "Seattle", "addr:housenumber": "4106", "addr:postcode": "98105", "addr:street": "Brooklyn Avenue Northeast", "addr:unit": "103A", "amenity": "restaurant", "name": "Gu\u01d2C100", "name:en": "Gu\u01d2C100", "name:zh": "\u679cC\u76ca\u4f70", "source": "King County GIS;data.seattle.gov"}}, {"type": "node", "id": 1721406955, "lat": 47.661845, "lon": -122.300048, "tags": {"addr:city": "Seattle", "addr:housenumber": "4601", "addr:postcode": "98105", "addr:street": "26th Avenue Northeast", "amenity": "restaurant", "check_date": "2025-10-30", "cuisine": "french", "name": "DeLille En Ville", "source": "King County GIS;data.seattle.gov"}}, {"type": "node", "id": 1721406962, "lat": 47.6621695, "lon": -122.2979545, "tags": {"addr:city": "Seattle", "addr:housenumber": "2695", "addr:postcode": "98105", "addr:street": "Northeast Village Lane", "amenity": "restaurant", "check_date": "2025-10-31", "checked_exists:date": "2015-11-08", "name": "Piatti Ristorante & Bar", "source": "King County GIS;data.seattle.gov", "website": "https://piatti.com/seattle"}}, {"type": "node", "id": 1726065084, "lat": 47.6516749, "lon": -122.3143999}, {"type": "node", "id": 2316544001, "lat": 47.653495, "lon": -122.3181282, "tags": {"addr:city": "Seattle", "addr:housenumber": "1001", "addr:postcode": "98105", "addr:street": "Northeast Boat Street", "amenity": "restaurant", "check_date": "2024-07-24", "name": "Seafab Cafe", "source": "King County GIS", "website": "https://www.seafabcafe.com"}}, {"type": "node", "id": 2316556903, "lat": 47.6515287, "lon": -122.3142193}, {"type": "node", "id": 2316556907, "lat": 47.6515748, "lon": -122.3141677}, {"type": "node", "id": 2316556910, "lat": 47.6516076, "lon": -122.31425}, {"type": "node", "id": 2316556911, "lat": 47.6516165, "lon": -122.3142427}, {"type": "node", "id": 2316556912, "lat": 47.6516209, "lon": -122.3142858}, {"type": "node", "id": 2316556913, "lat": 47.6516297, "lon": -122.3142786}, {"type": "node", "id": 2322595869, "lat": 47.6577128, "lon": -122.313397, "tags": {"addr:city": "Seattle", "addr:housenumber": "4129", "addr:postcode": "98105", "addr:street": "University Way Northeast", "amenity": "restaurant", "check_date": "2025-11-21", "name": "Yu Sushi & Katsu", "outdoor_seating": "no"}}, {"type": "node", "id": 2322595872, "lat": 47.657773, "lon": -122.313395, "tags": {"addr:city": "Seattle", "addr:housenumber": "4131", "addr:postcode": "98105", "addr:state": "WA", "addr:street": "University Way Northeast", "amenity": "restaurant", "check_date": "2025-11-21", "cuisine": "korean", "name": "The BoB", "name:en": "The BoB", "name:ko": "\ub354\ubc25", "phone": "+1-206-633-6582", "website": "https://the-bob-seattle.webflow.io/"}}, {"type": "node", "id": 2322595881, "lat": 47.658038, "lon": -122.31338, "tags": {"addr:city": "Seattle", "addr:housenumber": "4139", "addr:postcode": "98105", "addr:street": "University Way Northeast", "amenity": "restaurant", "check_date": "2025-11-21", "cuisine": "sushi", "name": "IJ Sushi Burrito"}}, {"type": "node", "id": 2322640329, "lat": 47.6575019, "lon": -122.3127908, "tags": {"addr:city": "Seattle", "addr:housenumber": "4124", "addr:postcode": "98105", "addr:street": "University Way Northeast", "amenity": "restaurant", "cuisine": "korean", "name": "U Dupbop", "source": "King County GIS;data.seattle.gov"}}, {"type": "node", "id": 2322647961, "lat": 47.6589834, "lon": -122.313007, "tags": {"addr:city": "Seattle", "addr:floor": "G", "addr:housenumber": "4220", "addr:postcode": "98105", "addr:street": "University Way Northeast", "amenity": "restaurant", "check_date": "2025-11-21", "cuisine": "indian", "diet:vegetarian": "yes", "level": "0", "name": "Chili's South Indian Cuisine", "not:brand:wikidata": "Q1072948", "opening_hours": "Tu,We 15:00-21:00; Th-Su 11:30-21:00", "payment:cash": "yes", "payment:credit_cards": "yes", "phone": "+1-206-633-1458", "takeaway": "yes", "website": "https://chilissouthindianrestaurant.com", "wheelchair": "yes"}}, {"type": "node", "id": 2322647966, "lat": 47.6590377, "lon": -122.3130072, "tags": {"addr:city": "Seattle", "addr:housenumber": "4222", "addr:postcode": "98105", "addr:street": "University Way Northeast", "amenity": "restaurant", "check_date": "2025-11-21", "diet:vegan": "yes", "diet:vegetarian": "yes", "name": "Sultan Gyro Grill"}}, {"type": "node", "id": 2322647970, "lat": 47.6591332, "lon": -122.3130437, "tags": {"addr:city": "Seattle", "addr:housenumber": "4226", "addr:postcode": "98105", "addr:street": "University Way Northeast", "amenity": "restaurant", "cuisine": "vietnamese", "diet:vegetarian": "yes", "name": "Thanh Vi", "source": "King County GIS;data.seattle.gov"}}, {"type": "node", "id": 2322647978, "lat": 47.6592986, "lon": -122.313034, "tags": {"addr:city": "Seattle", "addr:housenumber": "4234", "addr:postcode": "98105", "addr:street": "University Way Northeast", "amenity": "restaurant", "name": "A Burger Place", "source": "King County GIS;data.seattle.gov"}}, {"type": "node", "id": 2462325336, "lat": 47.6618823, "lon": -122.2990851, "tags": {"addr:city": "Seattle", "addr:housenumber": "2614", "addr:postcode": "98105", "addr:street": "Northeast 46th Street", "amenity": "restaurant", "check_date": "2025-11-13", "cuisine": "american", "name": "Eureka!", "wheelchair": "yes"}}, {"type": "node", "id": 2462325368, "lat": 47.662684, "lon": -122.298823, "tags": {"addr:city": "Seattle", "addr:housenumber": "2631", "addr:postcode": "98105", "addr:street": "Northeast University Village Street", "amenity": "restaurant", "check_date": "2023-11-12", "cuisine": "pizza", "name": "Delfino's Pizza", "opening_hours": "Mo-Th 11:00-21:00, Fr-Sa 11:00-22:00, Su 12:00-20:30", "outdoor_seating": "yes", "phone": "+1-206-522-3466", "smoking": "no", "source": "King County GIS;data.seattle.gov", "takeaway": "yes", "website": "https://delfinospizza.com/"}}, {"type": "node", "id": 2462325403, "lat": 47.6620735, "lon": -122.298453, "tags": {"addr:city": "Seattle", "addr:housenumber": "2675", "addr:postcode": "98105", "addr:street": "Northeast Village Lane", "amenity": "restaurant", "bar": "yes", "cuisine": "sushi", "name": "Bamboo Sushi", "opening_hours": "Mo-Su 11:00-21:00", "outdoor_seating": "yes", "phone": "+1-206-556-3449", "reservation": "yes", "source": "King County GIS;data.seattle.gov", "takeaway": "yes", "website": "https://bamboosushi.com/location/university-village"}}, {"type": "node", "id": 2464035794, "lat": 47.6599101, "lon": -122.3135074, "tags": {"addr:city": "Seattle", "addr:housenumber": "1316", "addr:postcode": "98105", "addr:street": "Northeast 43rd Street", "amenity": "restaurant", "check_date": "2025-08-30", "cuisine": "mediterranean", "diet:vegan": "yes", "diet:vegetarian": "yes", "name": "Samir's Mediterranean Grill"}}, {"type": "node", "id": 2671015705, "lat": 47.6517371, "lon": -122.3132664, "tags": {"amenity": "restaurant", "cuisine": "sandwich", "name": "Vista Caf\u00e9", "opening_hours": "Mo-Fr 07:30-15:00", "website": "https://www.hfs.washington.edu/dining/Default.aspx?id=324"}}, {"type": "node", "id": 2761935482, "lat": 47.6616138, "lon": -122.299772, "tags": {"addr:city": "Seattle", "addr:housenumber": "2603", "addr:postcode": "98105", "addr:street": "Northeast 46th Street", "alt_name": "Joey Kitchen", "amenity": "restaurant", "branch": "Kitchen", "brand": "Joey", "brand:wikidata": "Q24191943", "check_date": "2025-11-13", "level": "0", "name": "Joey", "opening_hours": "11:00-01:00", "phone": "+1-206-527-6188", "website": "http://joeyrestaurants.com/locations/#!/restaurant/409/usa?as=1"}}, {"type": "node", "id": 2761935496, "lat": 47.6615873, "lon": -122.299554, "tags": {"addr:city": "Seattle", "addr:housenumber": "2621", "addr:postcode": "98105", "addr:street": "Northeast 46th Street", "amenity": "restaurant", "brand": "Din Tai Fung", "brand:en": "Din Tai Fung", "brand:wikidata": "Q699142", "brand:zh": "\u9f0e\u6cf0\u8c50", "check_date": "2024-12-06", "cuisine": "taiwanese", "level": "1", "name": "Din Tai Fung", "name:en": "Din Tai Fung", "name:zh": "\u9f0e\u6cf0\u8c50", "opening_hours": "Mo-Fr 11:00-22:00; Sa-Su 10:00-22:00", "phone": "+1-206-525-0958", "source:addr:id": "1023883", "website": "https://dintaifungusa.com"}}, {"type": "node", "id": 2995184294, "lat": 47.6616353, "lon": -122.2979979, "tags": {"addr:city": "Seattle", "addr:housenumber": "2685", "addr:postcode": "98105", "addr:street": "Northeast 46th Street", "amenity": "restaurant", "cuisine": "vietnamese", "microbrewery": "no", "name": "Ba Bar", "opening_hours": "Mo-We 11:00-22:00; Th-Fr 11:00-01:00; Sa 10:00-01:00; Su 10:00-22:00", "outdoor_seating": "yes", "phone": "+1-206-328-1112", "source:addr:id": "1023893", "takeaway": "yes", "website": "https://babarseattle.com/university-village/", "wheelchair": "yes"}}, {"type": "node", "id": 2995199840, "lat": 47.649378, "lon": -122.3077192, "tags": {"addr:city": "Seattle", "addr:housenumber": "1959", "addr:postcode": "98195", "addr:street": "Northeast Pacific Street", "amenity": "restaurant", "name": "Plaza Cafe", "source:addr:id": "14021"}}, {"type": "node", "id": 2995199875, "lat": 47.6575638, "lon": -122.3175829, "tags": {"addr:city": "Seattle", "addr:housenumber": "4130", "addr:postcode": "98105", "addr:street": "Roosevelt Way Northeast", "amenity": "restaurant", "check_date": "2025-06-06", "indoor_seating": "yes", "name": "Portage Bay Cafe", "opening_hours": "Mo,Th 08:00-13:00; Fr-Su 08:00-14:00", "outdoor_seating": "yes", "website": "https://portagebaycafe.com", "wheelchair": "yes"}}, {"type": "node", "id": 3355097453, "lat": 47.6566177, "lon": -122.3148405, "tags": {"addr:city": "Seattle", "addr:housenumber": "1218", "addr:postcode": "98105", "addr:state": "WA", "addr:street": "Northeast Campus Parkway", "amenity": "restaurant", "cuisine": "american", "name": "Cultivate"}}, {"type": "node", "id": 4350527490, "lat": 47.6634434, "lon": -122.2991877, "tags": {"amenity": "restaurant", "check_date": "2023-11-12", "cuisine": "pizza", "diet:vegetarian": "yes", "name": "Elemental Pizza - U-Village", "phone": "+1-206-524-4930", "website": "https://elementalpizza.com/seattle/"}}, {"type": "node", "id": 4553005513, "lat": 47.6584214, "lon": -122.3122776, "tags": {"addr:city": "Seattle", "addr:housenumber": "1414", "addr:postcode": "98105", "addr:street": "Northeast 42nd Street", "addr:unit": "103A", "amenity": "restaurant", "cuisine": "korean", "name": "Kong Tofu House", "opening_hours": "10:00-22:00", "phone": "+1-206-545-6783", "source": "King County GIS;data.seattle.gov", "takeaway": "yes", "website": "http://www.kongtofuhouse.com", "wheelchair": "yes"}}, {"type": "node", "id": 5033374807, "lat": 47.6624128, "lon": -122.298902, "tags": {"addr:city": "Seattle", "addr:housenumber": "2626", "addr:postcode": "98105", "addr:street": "Northeast Village Lane", "amenity": "restaurant", "check_date": "2025-11-22", "cuisine": "japanese", "delivery": "no", "microbrewery": "no", "name": "Hokkaido Ramen Santouka", "name:ja": "\u3089\u30fc\u3081\u3093\u3000\u5c71\u982d\u706b", "opening_hours": "Su-Th 11:00-21:00; Fr-Sa 11:00-22:00", "outdoor_seating": "no", "payment:cash": "yes", "payment:credit_cards": "yes", "payment:debit_cards": "yes", "phone": "+1-206-524-4431", "source": "King County GIS;data.seattle.gov", "takeaway": "yes", "wheelchair": "yes"}}, {"type": "node", "id": 5281182571, "lat": 47.658217, "lon": -122.3140237, "tags": {"addr:city": "Seattle", "addr:housenumber": "4142", "addr:postcode": "98105", "addr:street": "Brooklyn Avenue Northeast", "amenity": "restaurant", "check_date": "2025-04-22", "cuisine": "korean", "name": "Korean Tofu House", "opening_hours": "Mo-Su 10:00-21:00", "phone": "+1-206-632-3119", "source": "King County GIS", "takeaway": "yes", "website": "https://www.koreantofuhouse.com"}}, {"type": "node", "id": 5908595010, "lat": 47.6596914, "lon": -122.3135109, "tags": {"amenity": "restaurant", "check_date": "2025-08-30", "diet:vegan": "yes", "diet:vegetarian": "yes", "name": "Cedars"}}, {"type": "node", "id": 5908595011, "lat": 47.659694, "lon": -122.3136629, "tags": {"addr:housenumber": "1313", "addr:street": "Northeast 43rd Street", "amenity": "restaurant", "contact:facebook": "Mark-Thai-Food-Box-577259816015338", "contact:instagram": "markthaifoodbox", "contact:twitter": "thaicurrysimple", "cuisine": "thai", "name": "Mark Thai Food Box", "opening_hours": "Mo-Fr 12:00-19:00", "phone": "+1-206-432-5902", "website": "https://udistrictseattle.com/business/markthaifoodbox"}}, {"type": "node", "id": 5908595013, "lat": 47.6600453, "lon": -122.3133353, "tags": {"addr:housenumber": "4305 1/2", "addr:street": "University Way Northeast", "amenity": "restaurant", "check_date": "2025-11-21", "name": "Nasai Teriyaki"}}, {"type": "node", "id": 6309416485, "lat": 47.6571135, "lon": -122.317545, "tags": {"amenity": "restaurant", "cuisine": "chinese", "name": "Little Duck"}}, {"type": "node", "id": 6780355215, "lat": 47.6586984, "lon": -122.3130501, "tags": {"amenity": "restaurant", "check_date": "2025-11-26", "check_date:opening_hours": "2025-11-26", "name": "Bombay", "opening_hours": "Mo-We 08:00-02:00, Th-Sa 08:00-03:00,12:00-24:00"}}, {"type": "node", "id": 9828748238, "lat": 47.6601888, "lon": -122.3133323, "tags": {"addr:city": "Seattle", "addr:housenumber": "4311", "addr:postcode": "98105", "addr:street": "University Way Northeast", "amenity": "restaurant", "check_date": "2025-11-21", "contact:phone": "+1-400-108-0899", "cuisine": "chinese", "name": "Qing Shu"}}, {"type": "node", "id": 10577535140, "lat": 47.6632404, "lon": -122.3019174, "tags": {"addr:city": "Seattle", "addr:housenumber": "4701", "addr:postcode": "98105", "addr:state": "WA", "addr:street": "24th Avenue Northeast", "amenity": "restaurant", "branch": "Seattle U-District", "brand:wikidata": "Q110239795", "cuisine": "chinese", "name": "Dough Zone", "phone": "+1-425-880-7880", "website": "https://www.doughzonedumplinghouse.com"}}, {"type": "node", "id": 11142039596, "lat": 47.6582148, "lon": -122.3139732, "tags": {"addr:city": "Seattle", "addr:housenumber": "4142", "addr:postcode": "98105", "addr:state": "WA", "addr:street": "Brooklyn Avenue Northeast", "addr:unit": "105", "amenity": "restaurant", "check_date": "2025-11-21", "cuisine": "thai", "diet:lactose_free": "yes", "diet:pescetarian": "yes", "diet:vegan": "yes", "diet:vegetarian": "yes", "name": "Little Thai", "opening_hours": "Mo-Fr 11:00-21:00; Sa 12:00-21:00", "outdoor_seating": "no", "phone": "+1-206-548-8009", "takeaway": "yes", "toilets": "yes", "website": "http://littlethaiseattle.com"}}, {"type": "node", "id": 12073564323, "lat": 47.6516637, "lon": -122.3143699, "tags": {"entrance": "main"}}, {"type": "node", "id": 12073564328, "lat": 47.6515632, "lon": -122.314491, "tags": {"entrance": "exit"}}, {"type": "node", "id": 13327358301, "lat": 47.6570565, "lon": -122.3141924, "tags": {"addr:housenumber": "4106", "addr:postcode": "98105", "addr:street": "Brooklyn Avenue Northeast", "amenity": "restaurant", "cuisine": "burger", "internet_access": "wlan", "name": "Shake & Stack Burgers", "opening_hours": "Mo-Su 11:00-22:00"}}, {"type": "way", "id": 99926900, "nodes": [1155193958, 12073564328, 1726065084, 12073564323, 2316556913, 2316556912, 2316556910, 2316556911, 1155193549, 1155194274, 2316556907, 1155193756, 1155193605, 2316556903, 1155193509, 1155194106, 1155194148, 1155193821, 1155193637, 1155193533, 1155193958], "tags": {"addr:city": "Seattle", "addr:country": "US", "addr:housenumber": "1303", "addr:postcode": "98105", "addr:state": "WA", "addr:street": "Northeast Boat Street", "amenity": "restaurant", "building": "retail", "check_date": "2024-07-24", "contact:email": "events@aguaverdecafe.com", "contact:facebook": "https://www.facebook.com/aguaverdecafeseattle", "contact:foursquare": "https://foursquare.com/v/agua-verde-cafe/4283ee00f964a520ae221fe3", "contact:instagram": "https://www.instagram.com/aguaverdecafeseattle/", "contact:tripadvisor": "https://www.tripadvisor.com/Restaurant_Review-g60878-d456400-Reviews-Agua_Verde_Cafe-Seattle_Washington.html", "contact:twitter": "https://twitter.com/aguaverdecafe", "cuisine": "mexican", "delivery": "no", "name": "Agua Verde Caf\u00e9", "note": "In addition to the restaurant, on the East Side of Agua Verde Caf\u00e9 with entry by the water. The Agua Verde Marina Cantina. You need to ask at the restaurant on how to get there.", "opening_hours": "Mo-We 11:00-21:00; Th-Fr 11:00-22:00, Sa 10:00-22:00, Su 10:00-22:00", "outdoor_seating": "yes", "phone": "+1-206-545-8570", "reservation": "no", "takeaway": "yes", "website": "https://www.aguaverdecafe.com/", "wheelchair": "yes"}}]}