{"version": 0.6, "generator": "Overpass API 0.7.62.8 e802775f", "osm3s": {"timestamp_osm_base": "2025-11-29T00:18:57Z", "copyright": "The data included in this document is from www.openstreetmap.org. The data is made available under ODbL."}, "elements": [{"type": "node", "id": 286316702, "lat": 32.7127302, "lon": -117.1563121, "tags": {"addr:city": "San Diego", "addr:housenumber": "721", "addr:postcode": "92101", "addr:state": "CA", "addr:street": "9th Avenue", "amenity": "restaurant", "name": "Wicked Chicken"}}, {"type": "node", "id": 356085872, "lat": 32.7142224, "lon": -117.1505327}, {"type": "node", "id": 356114959, "lat": 32.7146024, "lon": -117.1505676, "tags": {"entrance": "yes"}}, {"type": "node", "id": 356121508, "lat": 32.7146017, "lon": -117.1509146}, {"type": "node", "id": 356131027, "lat": 32.714218, "lon": -117.1509118}, {"type": "node", "id": 356534762, "lat": 32.7145812, "lon": -117.1557561, "tags": {"addr:housenumber": "947", "addr:street": "E Street", "amenity": "restaurant", "check_date": "2023-05-11", "cuisine": "mexican", "diet:vegan": "yes", "diet:vegetarian": "yes", "entrance": "yes", "name": "Pok\u00e9z", "phone": "+1-619-702-7160"}}, {"type": "node", "id": 596004653, "lat": 32.708795, "lon": -117.158906, "tags": {"addr:city": "San Diego", "addr:country": "US", "addr:housenumber": "335", "addr:postcode": "92101", "addr:state": "CA", "addr:street": "6th Avenue", "amenity": "restaurant", "cuisine": "barbecue", "name": "The Deck at Moonshine Flats", "phone": "+1-619-255-7625", "source": "SanGIS Addresses Public Domain (http://www.sangis.org/)", "website": "https://thedecksd.com/"}}, {"type": "node", "id": 596605690, "lat": 32.709075, "lon": -117.158907, "tags": {"addr:city": "San Diego", "addr:country": "US", "addr:housenumber": "355", "addr:postcode": "92101", "addr:state": "CA", "addr:street": "6th Avenue", "amenity": "restaurant", "cuisine": "breakfast", "name": "The Broken Yolk Cafe", "source": "SanGIS Addresses Public Domain (http://www.sangis.org/)", "website": "https://www.thebrokenyolkcafe.com/location/broken-yolk-cafe-gaslamp-downtown/"}}, {"type": "node", "id": 596922891, "lat": 32.708936, "lon": -117.158906, "tags": {"addr:city": "San Diego", "addr:country": "US", "addr:housenumber": "345", "addr:postcode": "92101", "addr:state": "CA", "addr:street": "6th Avenue", "air_conditioning": "yes", "amenity": "restaurant", "bar": "yes", "brewery": "yes", "check_date": "2023-07-12", "cuisine": "greek;pizza", "diet:meat": "yes", "diet:mediterranean": "yes", "diet:vegetarian": "yes", "microbrewery": "no", "name": "Meze Greek Fusion", "outdoor_seating": "yes", "payment:mastercard": "yes", "payment:visa": "yes", "reservation": "yes", "source": "SanGIS Addresses Public Domain (http://www.sangis.org/)", "website": "https://www.gaslampmeze.com/", "wheelchair": "yes"}}, {"type": "node", "id": 596940578, "lat": 32.709213, "lon": -117.157103, "tags": {"addr:country": "US", "addr:housenumber": "815", "addr:street": "J Street", "amenity": "restaurant", "name": "Social Tap San Diego", "source": "SanGIS Addresses Public Domain (http://www.sangis.org/)"}}, {"type": "node", "id": 2384789773, "lat": 32.7088005, "lon": -117.158527, "tags": {"addr:city": "San Diego", "addr:housenumber": "338", "addr:postcode": "92101", "addr:state": "CA", "addr:street": "7th Avenue", "amenity": "restaurant", "check_date": "2023-07-10", "cuisine": "breakfast;mexican", "name": "Lucky's Lunch Counter", "outdoor_seating": "yes", "phone": "+1-619-255-4782", "takeaway": "yes", "website": "https://www.luckyslunchcounter.com/", "wheelchair": "yes"}}, {"type": "node", "id": 2519426112, "lat": 32.7116727, "lon": -117.155905, "tags": {"addr:city": "San Diego", "addr:country": "US", "addr:housenumber": "930", "addr:postcode": "92101", "addr:street": "Market Street", "amenity": "restaurant", "check_date": "2023-05-10", "name": "East Village Tavern + Bowl", "opening_hours": "We-Sa 16:00-22:00; Su 09:00-21:00"}}, {"type": "node", "id": 5121438321, "lat": 32.7070958, "lon": -117.159086, "tags": {"addr:postcode": "92101", "amenity": "restaurant", "name": "McCormick & Schmick\u2019s Seafood & Steaks"}}, {"type": "node", "id": 6403144457, "lat": 32.709591, "lon": -117.1530801, "tags": {"addr:housenumber": "1350", "addr:postcode": "92101", "addr:street": "J Street", "amenity": "restaurant", "contact:facebook": "The-Mission-SoMa-East-Village-267015259982544", "cuisine": "american;breakfast", "description": "cafe\nrestaurant\nno wifi\nbreakfast\nporch seating\nkombucha\ncoffee\ntea", "name": "The Mission", "opening_hours": "Mo-Th 07:30-13:30; Fr-Su 07:00-14:00", "phone": "+1-619-232-7662", "website": "https://themissionsd.com/"}}, {"type": "node", "id": 6946480693, "lat": 32.7092607, "lon": -117.158911, "tags": {"addr:city": "San Diego", "addr:housenumber": "615", "addr:postcode": "92101", "addr:state": "CA", "addr:street": "J Street", "amenity": "restaurant", "internet_access": "wlan", "name": "Water Grill", "phone": "619-717-6992", "website": "https://www.watergrill.com/"}}, {"type": "node", "id": 7012805885, "lat": 32.7095784, "lon": -117.1557537, "tags": {"addr:housenumber": "410", "addr:street": "North 10th Avenue", "amenity": "restaurant", "name": "Basic"}}, {"type": "node", "id": 9215210429, "lat": 32.7091946, "lon": -117.1584621, "tags": {"addr:city": "San Diego", "addr:housenumber": "639", "addr:postcode": "92101", "addr:state": "CA", "addr:street": "J Street", "amenity": "restaurant", "cuisine": "mexican", "name": "The Blind Burro", "phone": "+1-619-795-7880", "website": "https://www.theblindburro.com/"}}, {"type": "node", "id": 9215210430, "lat": 32.7092722, "lon": -117.1579993, "tags": {"addr:city": "San Diego", "addr:housenumber": "715", "addr:postcode": "92101", "addr:state": "CA", "addr:street": "J Street", "amenity": "restaurant", "bar": "yes", "name": "Bub's At The Ballpark", "phone": "+1-619-546-0815", "website": "https://bubssandiego.com/"}}, {"type": "node", "id": 9215210434, "lat": 32.711696, "lon": -117.1571465, "tags": {"addr:city": "San Diego", "addr:housenumber": "804", "addr:postcode": "92101", "addr:state": "CA", "addr:street": "Market Street", "amenity": "restaurant", "bar": "yes", "name": "Bootlegger", "phone": "+1-619-794-2668", "website": "https://www.bootleggersd.com/"}}, {"type": "node", "id": 9215210437, "lat": 32.7117169, "lon": -117.1530593, "tags": {"addr:city": "San Diego", "addr:housenumber": "1288", "addr:postcode": "92101", "addr:state": "CA", "addr:street": "Market Street", "amenity": "restaurant", "cuisine": "japanese", "name": "BESHOCK Ramen East Village", "phone": "+1-619-310-5498", "website": "https://beshockramen.com/"}}, {"type": "node", "id": 10887709393, "lat": 32.7116593, "lon": -117.1566406, "tags": {"amenity": "restaurant", "name": "Knotty Barrel"}}, {"type": "node", "id": 10887719571, "lat": 32.7117654, "lon": -117.1566602, "tags": {"addr:housenumber": "630", "addr:postcode": "92101", "addr:street": "9th Avenue", "amenity": "restaurant", "cuisine": "arab;mediterranean;persian", "email": "eastvillage@thekebabshop.com", "name": "The Kebab Shop", "opening_hours": "Mo-Su 10:30-21:00", "phone": "+1-619-525-0055", "website": "https://thekebabshop.com/locations/ca/san-diego/east-village/"}}, {"type": "node", "id": 11151887106, "lat": 32.7138238, "lon": -117.1531126, "tags": {"addr:housenumber": "1290", "addr:postcode": "92101", "addr:street": "F Street", "amenity": "restaurant", "cuisine": "mexican", "name": "Lola 55", "name:en": "Lola 55 Tacos & Cocktails", "opening_hours": "Su, Tu-Th 11:30-21:00; Fr-Sa 11:30-22:00", "phone": "+1-619-542-9155", "website": "https://lola55.com"}}, {"type": "node", "id": 11187628777, "lat": 32.7097466, "lon": -117.159026}, {"type": "node", "id": 11187628778, "lat": 32.7096179, "lon": -117.1590254}, {"type": "node", "id": 11187628779, "lat": 32.7096184, "lon": -117.1588758}, {"type": "node", "id": 11187628780, "lat": 32.709747, "lon": -117.1588763}, {"type": "node", "id": 11189365737, "lat": 32.7146024, "lon": -117.1505376}, {"type": "node", "id": 11189365741, "lat": 32.7144968, "lon": -117.1505363, "tags": {"entrance": "yes"}}, {"type": "node", "id": 12091210760, "lat": 32.7117229, "lon": -117.1521822, "tags": {"amenity": "restaurant", "check_date": "2024-08-03", "description": "Hidden door inside cafe", "indoor": "yes", "name": "Sushi Gaga"}}, {"type": "node", "id": 13298677967, "lat": 32.7102877, "lon": -117.1539753, "tags": {"addr:floor": "1", "addr:housenumber": "1195", "addr:street": "Island Avenue", "amenity": "restaurant", "check_date": "2025-11-11", "cuisine": "mediterranean", "name": "Callie", "opening_hours": "Mo off; Tu-Su 17:00-22:00", "phone": "+1 (619) 255-9696", "website": "https://calliesd.com"}}, {"type": "node", "id": 13298749814, "lat": 32.7095801, "lon": -117.1558261, "tags": {"addr:housenumber": "410", "addr:street": "10th Avenue", "amenity": "restaurant", "check_date": "2025-11-11", "cuisine": "pizza", "name": "Far Corner", "opening_hours": "11:00-23:00", "phone": "+1 (619) 269-4786", "website": "https://farcornersd.com"}}, {"type": "way", "id": 31807231, "nodes": [356085872, 356131027, 356121508, 356114959, 11189365737, 11189365741, 356085872], "tags": {"addr:city": "San Diego", "addr:housenumber": "1485", "addr:postcode": "92101", "addr:state": "CA", "addr:street": "E Street", "amenity": "restaurant", "building": "yes", "building_type": "commercial", "name": "Punch Bowl Social San Diego", "opening_hours": "Mo-Th 11:00-24:00, Fr 11:00-02:00, Sa 10:00-02:00, Su 10:00-24:00", "sangis:OBJECTID": "5217", "sangis:TYPE": "Commercial", "source": "SanGIS Footprints_Nonresidential_SD public domain (http://www.sangis.org/)"}}, {"type": "way", "id": 1207407694, "nodes": [11187628777, 11187628778, 11187628779, 11187628780, 11187628777], "tags": {"addr:city": "San Diego", "addr:housenumber": "616", "addr:postcode": "92101", "addr:state": "CA", "addr:street": "J Street", "amenity": "restaurant", "bar": "yes", "cuisine": "burger;salad;american", "name": "Landshark Bar & Grill", "opening_hours": "Su-Th 07:00-22:00, Fr-Sa 07:00-23:00", "payment:american_express": "yes", "payment:credit_cards": "yes", "payment:debit_cards": "yes", "payment:maestro": "yes", "payment:mastercard": "yes", "payment:visa": "yes", "phone": "+1-619-531-8744", "website": "https://www.margaritavilleresorts.com/margaritaville-hotel-san-diego/eat-drink/landshark-bar-grill"}}]}